{"type":"FeatureCollection", "features": [
{"type":"Feature","geometry":{"type":"MultiPolygon","coordinates":[[[[50.2982,25.573],[50.3036,25.5585],[50.3396,25.5408],[50.3412,25.559],[50.3197,25.5737],[50.2982,25.573]]],[[[44.9794,27.6727],[45.0365,27.6389],[45.056,27.6092],[45.0597,27.5415],[45.1292,27.4378],[45.1478,27.4153],[45.1689,27.3719],[45.1886,27.2828],[45.2003,27.2625],[45.2469,27.2283],[45.3111,27.1931],[45.4089,27.1469],[45.5036,27.0953],[45.5742,27.0714],[45.6714,27.0678],[45.6933,27.0578],[45.7939,26.9481],[45.8708,26.8856],[45.9336,26.85],[45.9797,26.8436],[46.0719,26.8436],[46.165,26.8381],[46.2306,26.8197],[46.273,26.7989],[46.3811,26.7306],[46.4486,26.6825],[46.5392,26.6258],[46.5892,26.6078],[46.6575,26.6067],[46.7856,26.6331],[46.8305,26.6272],[46.8933,26.5739],[46.9364,26.5414],[47.0178,26.4686],[47.04,26.4267],[47.0603,26.4028],[47.1508,26.3792],[47.3872,26.2917],[47.43,26.2655],[47.4461,26.2444],[47.4617,26.1986],[47.4742,26.0686],[47.4755,25.8517],[47.4855,25.7189],[47.4861,25.6475],[47.4814,25.6064],[47.4808,25.5358],[47.4853,25.4742],[47.4747,25.3714],[47.4669,25.0764],[47.4769,24.8806],[47.4869,24.8147],[47.4967,24.7825],[47.5292,24.735],[47.5955,24.6872],[47.6611,24.6533],[47.7844,24.5789],[47.8694,24.52],[48.0083,24.3889],[48.1361,24.2767],[48.1847,24.2219],[48.2361,24.1389],[48.2706,24.0681],[48.2893,24],[48.31,23.8842],[48.3094,23.6772],[48.2886,23.5161],[48.2486,23.3011],[48.0594,21.8606],[48.0033,21.4133],[47.9436,21.0017],[47.8986,20.7017],[47.8547,20.3747],[47.8019,19.99],[47.745,19.5311],[47.7033,19.2533],[47.6644,18.9453],[47.6177,18.588],[47.5831,18.323],[47.5117,17.7744],[47.4861,17.4008],[47.4667,17.1167],[47.6,17.45],[47.8491,17.7565],[48.1833,18.1667],[48.6496,18.3922],[49.1167,18.6167],[49.7129,18.6772],[50.1298,18.7194],[50.7833,18.7833],[51.4249,18.8976],[52,19],[52.4228,19.1413],[52.9171,19.3064],[53.6337,19.5453],[54.3536,19.7851],[55,20],[55.2316,20.6962],[55.4225,21.2676],[55.6667,22],[55.2092,22.7088],[55.1373,22.6316],[54.5376,22.7076],[54.148,22.7556],[53.8074,22.7968],[53.3313,22.8533],[52.581,22.9392],[52.1634,23.4426],[51.9202,23.7377],[51.7581,23.9306],[51.5904,24.127],[51.5891,24.2546],[51.5624,24.248],[51.5342,24.2507],[51.5004,24.2962],[51.4721,24.3156],[51.405,24.3243],[51.3825,24.3171],[51.3563,24.2887],[51.3147,24.2941],[51.2962,24.2838],[51.2756,24.3011],[51.2878,24.3168],[51.2845,24.3472],[51.3045,24.3587],[51.3061,24.4048],[51.3232,24.43],[51.3641,24.4657],[51.3762,24.4647],[51.4154,24.5057],[51.416,24.5255],[51.4519,24.556],[51.4845,24.5608],[51.5051,24.5716],[51.477,24.5902],[51.4496,24.5877],[51.4428,24.6209],[51.4127,24.6142],[51.3836,24.5778],[51.3472,24.555],[51.3456,24.5303],[51.3043,24.5048],[51.2658,24.5056],[51.1556,24.4788],[51.0985,24.4708],[50.9945,24.504],[50.9284,24.5468],[50.8734,24.646],[50.8116,24.7444],[50.7911,24.7442],[50.7671,24.7269],[50.7456,24.7915],[50.7491,24.8113],[50.7293,24.8417],[50.7279,24.8718],[50.7064,24.8898],[50.6844,24.8905],[50.6731,24.909],[50.6734,24.9448],[50.654,24.9777],[50.6325,24.9979],[50.6097,25.0393],[50.582,25.0696],[50.56,25.0824],[50.5457,25.1333],[50.5581,25.1475],[50.5588,25.1831],[50.5309,25.2159],[50.5204,25.2473],[50.5327,25.271],[50.5318,25.3009],[50.5104,25.3425],[50.4931,25.4032],[50.4486,25.4424],[50.4304,25.444],[50.3969,25.472],[50.3796,25.4575],[50.3472,25.4739],[50.3326,25.5016],[50.3116,25.5149],[50.3034,25.5461],[50.2722,25.5561],[50.2552,25.5908],[50.2313,25.603],[50.1964,25.6616],[50.156,25.6937],[50.1428,25.7186],[50.1609,25.7309],[50.1765,25.7075],[50.1943,25.7013],[50.2143,25.6801],[50.2355,25.6828],[50.2493,25.6517],[50.2627,25.6724],[50.2383,25.6882],[50.2153,25.7445],[50.1825,25.7615],[50.1093,25.8821],[50.1029,25.9031],[50.1152,25.9281],[50.1192,25.9663],[50.1033,25.9868],[50.0782,25.985],[50.062,26.0001],[50.0383,26.0069],[50.0183,25.9855],[50.0003,25.9892],[50.0011,26.0761],[49.9913,26.1243],[50.0064,26.1462],[50.0207,26.19],[50.0328,26.2018],[50.059,26.1854],[50.0799,26.1246],[50.0934,26.1229],[50.1215,26.078],[50.1177,26.058],[50.1401,26.0522],[50.162,26.096],[50.16,26.1105],[50.1732,26.1442],[50.1672,26.1738],[50.1838,26.1742],[50.1918,26.1535],[50.2208,26.1904],[50.2189,26.2666],[50.2306,26.3172],[50.2218,26.3667],[50.1941,26.4106],[50.1727,26.4243],[50.1938,26.4434],[50.1793,26.4539],[50.1658,26.426],[50.1314,26.4369],[50.1347,26.4972],[50.1222,26.4998],[50.1124,26.4618],[50.0959,26.4792],[50.0753,26.468],[50.0453,26.5101],[50.0376,26.5471],[50.074,26.5413],[50.0869,26.5609],[50.0748,26.5958],[50.0218,26.5901],[50.0087,26.6563],[49.9899,26.6697],[49.9871,26.7183],[50.0074,26.7438],[50.0215,26.7026],[50.0391,26.6716],[50.0606,26.6869],[50.1004,26.685],[50.1048,26.707],[50.0736,26.7246],[50.0577,26.7483],[50.0086,26.8015],[49.997,26.8213],[49.9615,26.8405],[49.9545,26.8527],[49.8739,26.8584],[49.7822,26.8985],[49.6995,26.9547],[49.6659,26.9922],[49.6776,27.0231],[49.6374,27.0343],[49.6275,27.0624],[49.5926,27.081],[49.5776,27.1041],[49.5674,27.1418],[49.5544,27.1631],[49.5272,27.1882],[49.549,27.1961],[49.54,27.2364],[49.509,27.2466],[49.4886,27.2899],[49.4997,27.3221],[49.5329,27.3352],[49.5564,27.326],[49.575,27.2914],[49.5904,27.3024],[49.6423,27.3152],[49.6451,27.3002],[49.6748,27.2969],[49.6825,27.3083],[49.5808,27.329],[49.5482,27.3543],[49.5283,27.3556],[49.4864,27.3446],[49.4687,27.3223],[49.4543,27.282],[49.4775,27.2833],[49.4839,27.2654],[49.472,27.2379],[49.5001,27.2281],[49.5336,27.1957],[49.4953,27.1623],[49.5023,27.1364],[49.4726,27.1301],[49.4427,27.115],[49.4465,27.1407],[49.4282,27.1403],[49.3999,27.1116],[49.3719,27.1152],[49.3708,27.1507],[49.4009,27.1616],[49.4146,27.1884],[49.3955,27.1985],[49.3618,27.1888],[49.354,27.1516],[49.3208,27.1812],[49.3293,27.1978],[49.3151,27.2151],[49.3262,27.2605],[49.3146,27.2786],[49.3218,27.3222],[49.2842,27.3411],[49.2542,27.3289],[49.2377,27.3123],[49.2203,27.3227],[49.2407,27.342],[49.2308,27.3614],[49.2717,27.3882],[49.2328,27.4085],[49.2347,27.3846],[49.203,27.3751],[49.1982,27.3896],[49.1659,27.4087],[49.1352,27.4188],[49.1453,27.4344],[49.1731,27.4407],[49.1948,27.4276],[49.2226,27.4461],[49.2465,27.4316],[49.2841,27.4395],[49.3029,27.4763],[49.2783,27.4842],[49.2543,27.5259],[49.2046,27.5441],[49.1445,27.5379],[49.0964,27.5427],[49.0772,27.5583],[49.0518,27.5587],[49.0275,27.5722],[48.9869,27.6169],[48.964,27.6226],[48.9371,27.6057],[48.9219,27.572],[48.9041,27.5651],[48.8969,27.5893],[48.8669,27.5959],[48.8406,27.6173],[48.8537,27.6492],[48.8534,27.6962],[48.8336,27.6863],[48.8028,27.7108],[48.7838,27.709],[48.8094,27.7719],[48.8061,27.8045],[48.827,27.83],[48.833,27.7985],[48.8525,27.8163],[48.8699,27.79],[48.8442,27.7224],[48.8762,27.7456],[48.8906,27.7665],[48.8735,27.7804],[48.8883,27.8194],[48.8435,27.8609],[48.8251,27.867],[48.8199,27.8962],[48.7949,27.9033],[48.7634,27.9437],[48.7477,27.9527],[48.7473,27.9794],[48.778,27.9858],[48.7831,27.9994],[48.7002,28.014],[48.6697,28.0292],[48.6573,28.0535],[48.6379,28.0658],[48.6099,28.1129],[48.6101,28.1623],[48.6301,28.1976],[48.5853,28.2526],[48.545,28.2773],[48.5148,28.331],[48.5158,28.3555],[48.5302,28.3881],[48.5066,28.3898],[48.5125,28.4238],[48.5004,28.4388],[48.5015,28.4946],[48.4669,28.5055],[48.4305,28.5344],[47.7045,28.5244],[47.709,28.5431],[47.6538,28.5964],[47.639,28.6302],[47.6059,28.6553],[47.5957,28.6885],[47.5939,28.7276],[47.6,28.7589],[47.5871,28.8367],[47.5647,28.8621],[47.5431,28.8987],[47.5138,28.9312],[47.4977,28.9664],[47.4657,29.0003],[46.8427,29.0713],[46.7827,29.0761],[46.5631,29.1],[46.549,29.1001],[46.4261,29.0612],[46.0512,29.0932],[46.0273,29.0449],[45.9795,29.0084],[45.8968,28.9906],[45.8723,28.974],[45.8471,28.9452],[45.7887,28.9286],[45.7719,28.8882],[45.7541,28.8745],[45.7051,28.8731],[45.6972,28.8353],[45.6777,28.8024],[45.652,28.7846],[45.6215,28.7786],[45.5718,28.7783],[45.5112,28.7863],[45.4265,28.7927],[45.3248,28.787],[45.2674,28.7798],[45.2184,28.7863],[45.1478,28.7829],[45.1466,28.7291],[45.1209,28.708],[45.0945,28.6979],[45.0522,28.6633],[45.0517,28.6481],[45.0827,28.6092],[45.1075,28.5898],[45.1236,28.5617],[45.1562,28.5355],[45.1805,28.5079],[45.2067,28.4882],[45.2634,28.4284],[45.29,28.3796],[45.3263,28.2758],[45.3505,28.2275],[45.3477,28.1884],[45.3316,28.174],[45.2804,28.1605],[45.2468,28.1391],[45.2225,28.141],[45.212,28.1155],[45.2144,28.0848],[45.1858,28.0411],[45.1899,28.0096],[45.186,27.9769],[45.1493,27.9454],[45.1404,27.9257],[45.1423,27.877],[45.1072,27.8412],[45.0748,27.8196],[45.0463,27.7883],[45.0431,27.7418],[45.0093,27.7275],[44.9794,27.6727]]]]},"properties":{"code":"SA-04","name_ar":"المنطقة الشرقية","name_en":"Eastern Region"}},
{"type":"Feature","geometry":{"type":"Polygon","coordinates":[[[47.745,19.5311],[47.6069,19.4933],[47.4494,19.4583],[47.2442,19.4333],[46.9739,19.3925],[46.6358,19.3647],[46.3086,19.3361],[46.063,19.3119],[45.7939,19.2939],[45.5439,19.2719],[45.3694,19.2547],[45.2661,19.2536],[45.1764,19.2561],[45.0092,19.2728],[44.9153,19.2928],[44.8142,19.3336],[44.7636,19.3586],[44.685,19.4117],[44.6128,19.4575],[44.5167,19.5125],[44.5125,19.4511],[44.5219,19.3858],[44.5155,19.345],[44.4831,19.3067],[44.3933,19.27],[44.3714,19.2533],[44.3514,19.2094],[44.3586,19.1686],[44.3728,19.1269],[44.3961,19.0406],[44.4022,18.9731],[44.3975,18.9144],[44.3692,18.8531],[44.3339,18.8142],[44.2647,18.775],[44.1967,18.7506],[44.1297,18.7406],[44.0814,18.7192],[44.0539,18.69],[44.023,18.6064],[43.9706,18.5439],[43.9008,18.4919],[43.8314,18.4333],[43.7536,18.3561],[43.6642,18.2611],[43.6386,18.2142],[43.6361,18.1683],[43.6472,18.1261],[43.665,18.0792],[43.6747,18.04],[43.6758,17.9792],[43.6669,17.9136],[43.6547,17.8539],[43.6564,17.7858],[43.6467,17.7444],[43.6344,17.725],[43.6422,17.685],[43.6706,17.6033],[43.6722,17.56],[43.6178,17.4261],[43.6833,17.3667],[43.7889,17.375],[43.8319,17.3389],[43.9056,17.3417],[43.9667,17.3306],[44.0113,17.4024],[44.0232,17.3913],[44.0667,17.4058],[44.1006,17.3661],[44.1308,17.3836],[44.138,17.4089],[44.3886,17.4351],[44.4666,17.4352],[44.5667,17.4074],[44.6497,17.4351],[45.0739,17.4334],[45.2172,17.4352],[45.2702,17.4076],[45.4,17.3333],[45.7481,17.2919],[46.1,17.25],[46.3667,17.2333],[46.75,17.2833],[47.0002,16.951],[47.1833,16.95],[47.4667,17.1167],[47.4861,17.4008],[47.5117,17.7744],[47.5831,18.323],[47.6177,18.588],[47.6644,18.9453],[47.7033,19.2533],[47.745,19.5311]]]},"properties":{"code":"SA-10","name_ar":"منطقة نجران","name_en":"Najran Region"}},
{"type":"Feature","geometry":{"type":"Polygon","coordinates":[[[46.0512,29.0932],[45.3801,29.1481],[44.7219,29.1985],[44.3978,29.4406],[44.0624,29.6891],[43.7313,29.9324],[43.4097,30.1668],[43.0835,30.4026],[42.7613,30.6335],[42.4288,30.8698],[42.0856,31.1117],[41.4407,31.3732],[40.9232,31.6647],[40.4133,31.9481],[39.797,32.0545],[39.2009,32.1543],[39.1792,32.1354],[39.0063,32.0006],[38.4156,31.8586],[37.9655,31.7459],[37.9486,31.7189],[37.961,31.6943],[37.956,31.6717],[37.9409,31.66],[37.937,31.6239],[37.9558,31.5905],[37.9411,31.5216],[37.9635,31.4697],[37.9418,31.4522],[37.962,31.3895],[37.9606,31.3672],[37.9358,31.3434],[37.9358,31.2831],[37.9171,31.2634],[37.9099,31.2353],[37.8892,31.2211],[37.9147,31.1969],[37.9462,31.2072],[37.968,31.2005],[37.9916,31.2055],[38.0125,31.1959],[38.041,31.1558],[38.0562,31.1464],[38.0831,31.1721],[38.097,31.1512],[38.0756,31.1306],[38.0754,31.1041],[38.0975,31.0972],[38.1275,31.1146],[38.1609,31.0769],[38.1527,31.0483],[38.1789,31.0015],[38.1635,30.9434],[38.1626,30.915],[38.178,30.8713],[38.2075,30.8656],[38.2515,30.867],[38.2702,30.8877],[38.3326,30.9054],[38.4669,30.9078],[38.5118,30.9162],[38.5433,30.9321],[38.6274,30.9323],[38.6761,30.9234],[38.7235,30.9323],[38.7463,30.9242],[38.7597,30.8901],[38.7917,30.8821],[38.8116,30.9045],[38.869,30.9076],[38.9384,30.9561],[38.98,30.9674],[39.1169,30.9708],[39.2092,30.9693],[39.3139,30.9511],[39.347,30.9318],[39.3852,30.9018],[39.4141,30.8915],[39.501,30.9179],[39.5618,30.9107],[39.5841,30.9191],[39.6108,30.9054],[39.6497,30.9148],[39.6927,30.8821],[39.7547,30.8545],[39.79,30.8598],[39.8489,30.8855],[39.8686,30.8896],[39.8969,30.8533],[39.937,30.8456],[39.9786,30.8009],[40.0387,30.7743],[40.0846,30.7358],[40.135,30.7342],[40.1992,30.7471],[40.2218,30.7808],[40.2403,30.7892],[40.2578,30.8125],[40.2801,30.8247],[40.313,30.825],[40.3618,30.8017],[40.4002,30.7993],[40.4353,30.781],[40.4795,30.7822],[40.4987,30.7697],[40.6366,30.744],[40.6897,30.7373],[40.7778,30.7469],[40.8612,30.7673],[40.9251,30.7714],[41.0111,30.7615],[41.061,30.7498],[41.1007,30.7301],[41.0966,30.707],[41.1182,30.6816],[41.1223,30.6578],[41.1172,30.6016],[41.1014,30.572],[41.1007,30.5362],[41.1134,30.5101],[41.1458,30.5115],[41.1802,30.5679],[41.2179,30.5833],[41.3611,30.5689],[41.4036,30.584],[41.4286,30.5869],[41.4639,30.5545],[41.5419,30.5448],[41.565,30.5289],[41.6327,30.5207],[41.6378,30.503],[41.6214,30.4806],[41.5595,30.4307],[41.5693,30.3728],[41.5948,30.3502],[41.6476,30.3377],[41.6964,30.3375],[41.7425,30.3221],[41.7617,30.3022],[41.7845,30.2644],[41.8069,30.2488],[41.8232,30.2198],[41.864,30.1811],[41.8953,30.1624],[41.9697,30.1061],[41.9757,30.0797],[41.9565,30.0653],[41.9046,30.0508],[41.8186,30.039],[41.7901,30.0239],[41.7696,30.0042],[41.7634,29.923],[41.7492,29.9095],[41.7132,29.9264],[41.6546,29.9136],[41.6178,29.9228],[41.5801,29.9151],[41.5587,29.8997],[41.5494,29.8685],[41.5213,29.8536],[41.5035,29.818],[41.4543,29.8195],[41.4019,29.8043],[41.3949,29.7909],[41.4189,29.7553],[41.4115,29.7164],[41.4108,29.6405],[41.4218,29.5309],[41.4519,29.5328],[41.4627,29.5566],[41.5035,29.559],[41.5117,29.5499],[41.5033,29.5093],[41.5049,29.4437],[41.5364,29.4027],[41.5513,29.3481],[41.5684,29.3248],[41.5919,29.3116],[41.5777,29.2581],[41.6075,29.1543],[41.6032,29.1336],[41.5719,29.1271],[41.5306,29.1358],[41.4761,29.1331],[41.4328,29.118],[41.4059,29.0918],[41.3903,29.0457],[41.3615,28.977],[41.3519,28.9378],[41.3488,28.8729],[41.3893,28.8776],[41.4625,28.8724],[41.5062,28.8616],[41.5381,28.8448],[41.665,28.835],[41.7166,28.8349],[41.788,28.8266],[41.8602,28.8272],[41.8997,28.8062],[41.9316,28.8088],[42.0165,28.8603],[42.0388,28.8781],[42.0573,28.8768],[42.0967,28.8325],[42.1523,28.8176],[42.2015,28.8088],[42.2936,28.7811],[42.3794,28.7687],[42.4165,28.7693],[42.4734,28.7587],[42.5283,28.7298],[42.5412,28.7033],[42.5301,28.6831],[42.562,28.6608],[42.5795,28.625],[42.6076,28.611],[42.6353,28.6066],[42.6734,28.6196],[42.7103,28.5912],[42.7664,28.5814],[42.7883,28.5669],[42.7992,28.5459],[42.7935,28.5195],[42.7788,28.5029],[42.7797,28.4468],[42.8142,28.4364],[42.8332,28.4206],[42.8202,28.4005],[42.8319,28.382],[42.8837,28.4071],[42.9259,28.3844],[42.9505,28.3791],[42.9966,28.356],[43.0447,28.3565],[43.0716,28.3462],[43.0977,28.3271],[43.13,28.3498],[43.1986,28.3891],[43.2354,28.3938],[43.2638,28.4291],[43.2981,28.423],[43.3337,28.4264],[43.3555,28.4143],[43.4018,28.4066],[43.4273,28.4331],[43.4392,28.4288],[43.4386,28.384],[43.4451,28.3659],[43.4713,28.3658],[43.4698,28.4291],[43.4942,28.442],[43.5152,28.419],[43.5335,28.4311],[43.5613,28.4195],[43.5815,28.4316],[43.6099,28.4291],[43.6563,28.4585],[43.6714,28.4602],[43.6877,28.434],[43.756,28.4168],[43.7699,28.4268],[43.8022,28.4102],[43.8208,28.4166],[43.8404,28.4381],[43.8588,28.4273],[43.9117,28.3574],[43.9117,28.3236],[43.8869,28.2943],[43.8822,28.259],[43.9077,28.1778],[43.9084,28.1589],[43.9276,28.1095],[43.9403,28.0781],[43.9377,28.0452],[43.9231,27.9918],[43.9109,27.9699],[43.923,27.9456],[43.9608,27.9344],[43.964,27.9026],[43.9913,27.8954],[44.0281,27.9274],[44.083,27.9653],[44.1641,27.9682],[44.2286,27.9502],[44.2836,27.9224],[44.3287,27.8815],[44.3902,27.8515],[44.4258,27.8225],[44.4784,27.7961],[44.5043,27.7775],[44.5498,27.7336],[44.5963,27.6578],[44.6547,27.5999],[44.6775,27.5602],[44.7208,27.5252],[44.7326,27.5276],[44.7811,27.5605],[44.8154,27.5737],[44.8952,27.5802],[44.9302,27.6052],[44.9794,27.6727],[45.0093,27.7275],[45.0431,27.7418],[45.0463,27.7883],[45.0748,27.8196],[45.1072,27.8412],[45.1423,27.877],[45.1404,27.9257],[45.1493,27.9454],[45.186,27.9769],[45.1899,28.0096],[45.1858,28.0411],[45.2144,28.0848],[45.212,28.1155],[45.2225,28.141],[45.2468,28.1391],[45.2804,28.1605],[45.3316,28.174],[45.3477,28.1884],[45.3505,28.2275],[45.3263,28.2758],[45.29,28.3796],[45.2634,28.4284],[45.2067,28.4882],[45.1805,28.5079],[45.1562,28.5355],[45.1236,28.5617],[45.1075,28.5898],[45.0827,28.6092],[45.0517,28.6481],[45.0522,28.6633],[45.0945,28.6979],[45.1209,28.708],[45.1466,28.7291],[45.1478,28.7829],[45.2184,28.7863],[45.2674,28.7798],[45.3248,28.787],[45.4265,28.7927],[45.5112,28.7863],[45.5718,28.7783],[45.6215,28.7786],[45.652,28.7846],[45.6777,28.8024],[45.6972,28.8353],[45.7051,28.8731],[45.7541,28.8745],[45.7719,28.8882],[45.7887,28.9286],[45.8471,28.9452],[45.8723,28.974],[45.8968,28.9906],[45.9795,29.0084],[46.0273,29.0449],[46.0512,29.0932]]]},"properties":{"code":"SA-08","name_ar":"منطقة الحدود الشمالية","name_en":"Northern Borders Region"}},
{"type":"Feature","geometry":{"type":"Polygon","coordinates":[[[41.3488,28.8729],[41.3238,28.8708],[41.2541,28.8809],[41.2031,28.8707],[41.1194,28.8746],[41.0434,28.8726],[41.0103,28.8799],[40.984,28.8781],[40.8886,28.8837],[40.8311,28.8913],[40.7757,28.8776],[40.7121,28.8767],[40.6706,28.8927],[40.6118,28.8864],[40.5379,28.8867],[40.4246,28.8155],[40.321,28.7835],[40.2643,28.7519],[40.1764,28.7201],[40.1545,28.7011],[40.0361,28.6538],[39.9505,28.6336],[39.8913,28.608],[39.8065,28.5514],[39.7912,28.5448],[39.7541,28.4907],[39.745,28.4677],[39.6914,28.406],[39.6674,28.3959],[39.608,28.3543],[39.5916,28.3254],[39.549,28.2893],[39.5313,28.2629],[39.5022,28.2384],[39.4831,28.2104],[39.4557,28.1872],[39.4283,28.1498],[39.4165,28.1243],[39.3693,28.0622],[39.3675,28.0224],[39.3784,28.0004],[39.4147,27.9746],[39.4777,27.9508],[39.6019,27.911],[39.6613,27.8761],[39.6878,27.8719],[39.7478,27.8426],[39.7775,27.8207],[39.8324,27.7646],[39.8819,27.6796],[39.8964,27.6445],[39.912,27.5897],[39.9207,27.4976],[39.9183,27.4539],[39.9249,27.4283],[39.9539,27.3865],[39.972,27.334],[39.9885,27.3043],[40.011,27.2787],[40.0115,27.2273],[40.0046,27.1961],[40.011,27.1691],[39.9998,27.1294],[39.9782,27.1255],[39.969,27.1477],[39.9078,27.1589],[39.8867,27.1833],[39.8871,27.2093],[39.8256,27.2385],[39.7855,27.2302],[39.7611,27.2045],[39.7433,27.1623],[39.7335,27.1199],[39.6286,27.0099],[39.6006,26.9601],[39.5791,26.9455],[39.5685,26.9182],[39.5341,26.8942],[39.5023,26.8583],[39.4932,26.8114],[39.5007,26.7655],[39.5141,26.7526],[39.5529,26.7463],[39.6434,26.7395],[39.6593,26.7308],[39.6625,26.6753],[39.6776,26.6586],[39.7216,26.6324],[39.761,26.5978],[39.7729,26.5814],[39.7909,26.5243],[39.8102,26.5073],[39.834,26.4692],[39.8739,26.4199],[39.8862,26.3976],[39.8922,26.3587],[39.8827,26.2938],[39.8881,26.2643],[39.9464,26.1794],[39.962,26.1495],[39.9538,26.0843],[39.9526,25.9743],[39.9625,25.9264],[39.9614,25.8843],[39.9533,25.8464],[39.9515,25.8046],[39.9627,25.7705],[39.9775,25.749],[39.9711,25.6764],[39.9602,25.6351],[39.9626,25.5367],[39.9581,25.5254],[39.9637,25.4787],[39.978,25.4307],[40.0141,25.3839],[40.0377,25.3705],[40.075,25.3654],[40.1104,25.3437],[40.1803,25.3269],[40.2358,25.3253],[40.2816,25.3111],[40.3095,25.3093],[40.3487,25.3161],[40.3821,25.3134],[40.4437,25.2918],[40.4609,25.2962],[40.4521,25.3615],[40.4695,25.4074],[40.4967,25.4313],[40.5186,25.44],[40.5461,25.4394],[40.5622,25.4192],[40.5926,25.4056],[40.6376,25.4141],[40.6984,25.4143],[40.7311,25.4261],[40.749,25.4472],[40.7857,25.5117],[40.8099,25.5452],[40.831,25.5622],[40.8824,25.5814],[40.9232,25.5802],[40.9831,25.5614],[41.0341,25.5708],[41.0637,25.5681],[41.0932,25.5503],[41.118,25.5232],[41.1515,25.4975],[41.1946,25.4845],[41.2374,25.4798],[41.278,25.5179],[41.2933,25.5403],[41.3405,25.5622],[41.3932,25.6311],[41.4136,25.681],[41.4378,25.723],[41.4743,25.7372],[41.5167,25.7266],[41.5356,25.7307],[41.6451,25.7196],[41.6781,25.725],[41.7034,25.7579],[41.7274,25.8131],[41.8183,25.8823],[41.8035,25.9188],[41.8079,25.9432],[41.8366,25.974],[41.8594,25.9674],[41.8978,25.9437],[41.9231,25.9539],[41.9109,25.9997],[41.9422,26.0311],[41.9349,26.0802],[41.9647,26.1062],[42.0316,26.1268],[42.0706,26.18],[42.1063,26.1752],[42.1403,26.1536],[42.1603,26.155],[42.1896,26.1886],[42.2016,26.2385],[42.193,26.2693],[42.1669,26.31],[42.1625,26.3445],[42.1725,26.3566],[42.2202,26.3894],[42.2488,26.4201],[42.2783,26.4683],[42.317,26.4787],[42.3377,26.4758],[42.3579,26.4561],[42.3421,26.4353],[42.3598,26.4215],[42.3763,26.4338],[42.3984,26.4742],[42.3961,26.5077],[42.42,26.5194],[42.4573,26.5061],[42.4814,26.5178],[42.5438,26.5648],[42.5736,26.5935],[42.5919,26.5959],[42.6182,26.613],[42.6652,26.685],[42.7133,26.747],[42.7173,26.7681],[42.707,26.7999],[42.7109,26.8227],[42.7408,26.8135],[42.7568,26.8278],[42.7779,26.8265],[42.8283,26.8528],[42.8479,26.8781],[42.8898,26.8696],[42.9045,26.8959],[42.9263,26.9163],[42.9684,26.9148],[42.994,26.8774],[43.0215,26.8855],[43.0331,26.9046],[43.0547,26.9071],[43.1166,26.9602],[43.1415,26.9867],[43.1754,27.0327],[43.1822,27.0757],[43.2161,27.119],[43.2174,27.1429],[43.2035,27.1626],[43.2147,27.1775],[43.2088,27.2018],[43.2297,27.2173],[43.2985,27.2429],[43.338,27.25],[43.334,27.2852],[43.2754,27.2988],[43.2631,27.3231],[43.2672,27.362],[43.2864,27.4138],[43.3116,27.4234],[43.3711,27.4256],[43.3829,27.4307],[43.3865,27.4735],[43.4154,27.4956],[43.4386,27.4928],[43.4655,27.4732],[43.485,27.4762],[43.4976,27.4992],[43.5647,27.502],[43.6454,27.5153],[43.7158,27.517],[43.7237,27.5373],[43.7204,27.6352],[43.7124,27.6536],[43.7034,27.7378],[43.7145,27.8484],[43.7291,27.9094],[43.7317,27.9456],[43.7844,27.9975],[43.8865,28.0813],[43.9276,28.1095],[43.9084,28.1589],[43.9077,28.1778],[43.8822,28.259],[43.8869,28.2943],[43.9117,28.3236],[43.9117,28.3574],[43.8588,28.4273],[43.8404,28.4381],[43.8208,28.4166],[43.8022,28.4102],[43.7699,28.4268],[43.756,28.4168],[43.6877,28.434],[43.6714,28.4602],[43.6563,28.4585],[43.6099,28.4291],[43.5815,28.4316],[43.5613,28.4195],[43.5335,28.4311],[43.5152,28.419],[43.4942,28.442],[43.4698,28.4291],[43.4713,28.3658],[43.4451,28.3659],[43.4386,28.384],[43.4392,28.4288],[43.4273,28.4331],[43.4018,28.4066],[43.3555,28.4143],[43.3337,28.4264],[43.2981,28.423],[43.2638,28.4291],[43.2354,28.3938],[43.1986,28.3891],[43.13,28.3498],[43.0977,28.3271],[43.0716,28.3462],[43.0447,28.3565],[42.9966,28.356],[42.9505,28.3791],[42.9259,28.3844],[42.8837,28.4071],[42.8319,28.382],[42.8202,28.4005],[42.8332,28.4206],[42.8142,28.4364],[42.7797,28.4468],[42.7788,28.5029],[42.7935,28.5195],[42.7992,28.5459],[42.7883,28.5669],[42.7664,28.5814],[42.7103,28.5912],[42.6734,28.6196],[42.6353,28.6066],[42.6076,28.611],[42.5795,28.625],[42.562,28.6608],[42.5301,28.6831],[42.5412,28.7033],[42.5283,28.7298],[42.4734,28.7587],[42.4165,28.7693],[42.3794,28.7687],[42.2936,28.7811],[42.2015,28.8088],[42.1523,28.8176],[42.0967,28.8325],[42.0573,28.8768],[42.0388,28.8781],[42.0165,28.8603],[41.9316,28.8088],[41.8997,28.8062],[41.8602,28.8272],[41.788,28.8266],[41.7166,28.8349],[41.665,28.835],[41.5381,28.8448],[41.5062,28.8616],[41.4625,28.8724],[41.3893,28.8776],[41.3488,28.8729]]]},"properties":{"code":"SA-06","name_ar":"منطقة حائل","name_en":"Hayel Region"}},
{"type":"Feature","geometry":{"type":"Polygon","coordinates":[[[44.9794,27.6727],[44.9302,27.6052],[44.8952,27.5802],[44.8154,27.5737],[44.7811,27.5605],[44.7326,27.5276],[44.7208,27.5252],[44.7437,27.502],[44.774,27.4533],[44.8153,27.401],[44.8438,27.3452],[44.8752,27.2982],[44.8916,27.2238],[44.8816,27.1414],[44.877,27.0312],[44.9025,26.9405],[44.8822,26.9327],[44.8489,26.9698],[44.8093,26.9883],[44.7365,27.0312],[44.7075,27.0447],[44.6842,27.0444],[44.6384,27.0317],[44.5994,27.031],[44.5614,27.0173],[44.5326,27.0174],[44.462,27.0015],[44.4276,26.9825],[44.4105,26.9367],[44.406,26.8555],[44.3942,26.7863],[44.3882,26.7217],[44.3915,26.6904],[44.3915,26.6139],[44.4066,26.5484],[44.4287,26.4054],[44.463,26.2704],[44.4789,26.2286],[44.4912,26.1759],[44.5063,26.0685],[44.5464,26.0012],[44.5602,25.9553],[44.5958,25.8759],[44.6276,25.8192],[44.6585,25.7829],[44.7278,25.7495],[44.7942,25.7003],[44.7893,25.6724],[44.768,25.6202],[44.749,25.559],[44.7168,25.5058],[44.6942,25.5081],[44.5691,25.5687],[44.5293,25.5908],[44.4766,25.6101],[44.4397,25.6028],[44.3974,25.5419],[44.2977,25.5048],[44.2451,25.4881],[44.1745,25.4718],[44.1173,25.4654],[44.0544,25.4477],[43.9703,25.3365],[43.9167,25.3377],[43.8345,25.3329],[43.7547,25.3197],[43.7241,25.3007],[43.7333,25.2428],[43.7303,25.2196],[43.7155,25.1993],[43.6555,25.1713],[43.6066,25.1655],[43.5766,25.1682],[43.5043,25.2151],[43.4539,25.2055],[43.4152,25.167],[43.4154,25.1594],[43.3722,25.0998],[43.2766,25.0277],[43.2433,25.0109],[43.2016,25.0167],[43.1426,25.0118],[43.101,24.9424],[43.1033,24.8996],[43.1191,24.8971],[43.1624,24.9326],[43.2056,24.9334],[43.2194,24.92],[43.2075,24.8863],[43.1685,24.8586],[43.1238,24.8486],[43.117,24.8274],[43.1582,24.7956],[43.1454,24.7813],[43.0943,24.7631],[43.1041,24.7366],[43.1185,24.7353],[43.1947,24.7528],[43.2079,24.7417],[43.2026,24.7056],[43.173,24.6628],[43.1336,24.5884],[43.1212,24.5563],[43.0671,24.5163],[43.048,24.516],[42.9968,24.5384],[42.9657,24.5439],[42.9028,24.5471],[42.8584,24.5336],[42.8245,24.5105],[42.8246,24.4689],[42.7861,24.4439],[42.7324,24.4424],[42.5636,24.4453],[42.533,24.4839],[42.4969,24.552],[42.4757,24.6117],[42.4331,24.7],[42.4011,24.7079],[42.3043,24.7089],[42.2533,24.7042],[42.2053,24.712],[42.1615,24.7129],[42.1297,24.7074],[42.0981,24.5947],[42.0905,24.5433],[42.0561,24.4825],[42.0103,24.4358],[41.9989,24.4153],[41.9992,24.3867],[42.0214,24.3403],[42.0261,24.3194],[42.0025,24.27],[41.9853,24.1897],[41.9864,24.1147],[41.9814,24.0383],[41.9864,23.9491],[41.9736,23.8519],[41.9764,23.7892],[41.9842,23.7683],[42.0042,23.7497],[42.0667,23.7175],[42.0881,23.7017],[42.1142,23.6567],[42.1317,23.57],[42.1461,23.5283],[42.1822,23.4656],[42.1986,23.4239],[42.2136,23.315],[42.225,23.2728],[42.2864,23.1381],[42.3461,23.0136],[42.3744,22.9706],[42.3953,22.9536],[42.4617,22.9267],[42.5067,22.9214],[42.6464,22.9261],[42.8917,22.9067],[42.9605,22.8869],[43.0017,22.8594],[43.0147,22.8169],[42.9892,22.7575],[42.9892,22.6744],[42.9822,22.6342],[42.9833,22.5936],[43.0175,22.5517],[43.1011,22.5197],[43.148,22.5203],[43.2433,22.5478],[43.2889,22.5569],[43.3317,22.5522],[43.3828,22.5397],[43.4519,22.5306],[43.4761,22.5189],[43.4867,22.4989],[43.485,22.4767],[43.4683,22.415],[43.4572,22.35],[43.4597,22.2881],[43.4717,22.2217],[43.4869,22.1081],[43.5097,21.9772],[43.5064,21.9331],[43.4781,21.8739],[43.4444,21.8375],[43.4217,21.8],[43.4267,21.735],[43.435,21.6736],[43.4375,21.6117],[43.4303,21.5686],[43.3975,21.4628],[43.3875,21.4228],[43.3864,21.3814],[43.4033,21.3414],[43.4781,21.2556],[43.5417,21.1683],[43.6125,21.0603],[43.6255,21.0361],[43.6675,20.9761],[43.7125,20.9456],[43.7725,20.8917],[43.8156,20.8592],[43.8556,20.815],[43.9239,20.705],[43.9664,20.6578],[44.0283,20.6067],[44.0483,20.5847],[44.0642,20.5378],[44.063,20.4972],[44.0483,20.4594],[43.9883,20.375],[43.9675,20.3358],[43.9447,20.2461],[43.9214,20.1233],[43.9305,20.1006],[43.9906,20.0422],[44.0244,19.9972],[44.0725,19.9111],[44.1239,19.8447],[44.2294,19.7544],[44.2711,19.7128],[44.3294,19.6614],[44.415,19.5944],[44.4742,19.5433],[44.5167,19.5125],[44.6128,19.4575],[44.685,19.4117],[44.7636,19.3586],[44.8142,19.3336],[44.9153,19.2928],[45.0092,19.2728],[45.1764,19.2561],[45.2661,19.2536],[45.3694,19.2547],[45.5439,19.2719],[45.7939,19.2939],[46.063,19.3119],[46.3086,19.3361],[46.6358,19.3647],[46.9739,19.3925],[47.2442,19.4333],[47.4494,19.4583],[47.6069,19.4933],[47.745,19.5311],[47.8019,19.99],[47.8547,20.3747],[47.8986,20.7017],[47.9436,21.0017],[48.0033,21.4133],[48.0594,21.8606],[48.2486,23.3011],[48.2886,23.5161],[48.3094,23.6772],[48.31,23.8842],[48.2893,24],[48.2706,24.0681],[48.2361,24.1389],[48.1847,24.2219],[48.1361,24.2767],[48.0083,24.3889],[47.8694,24.52],[47.7844,24.5789],[47.6611,24.6533],[47.5955,24.6872],[47.5292,24.735],[47.4967,24.7825],[47.4869,24.8147],[47.4769,24.8806],[47.4669,25.0764],[47.4747,25.3714],[47.4853,25.4742],[47.4808,25.5358],[47.4814,25.6064],[47.4861,25.6475],[47.4855,25.7189],[47.4755,25.8517],[47.4742,26.0686],[47.4617,26.1986],[47.4461,26.2444],[47.43,26.2655],[47.3872,26.2917],[47.1508,26.3792],[47.0603,26.4028],[47.04,26.4267],[47.0178,26.4686],[46.9364,26.5414],[46.8933,26.5739],[46.8305,26.6272],[46.7856,26.6331],[46.6575,26.6067],[46.5892,26.6078],[46.5392,26.6258],[46.4486,26.6825],[46.3811,26.7306],[46.273,26.7989],[46.2306,26.8197],[46.165,26.8381],[46.0719,26.8436],[45.9797,26.8436],[45.9336,26.85],[45.8708,26.8856],[45.7939,26.9481],[45.6933,27.0578],[45.6714,27.0678],[45.5742,27.0714],[45.5036,27.0953],[45.4089,27.1469],[45.3111,27.1931],[45.2469,27.2283],[45.2003,27.2625],[45.1886,27.2828],[45.1689,27.3719],[45.1478,27.4153],[45.1292,27.4378],[45.0597,27.5415],[45.056,27.6092],[45.0365,27.6389],[44.9794,27.6727]]]},"properties":{"code":"SA-01","name_ar":"منطقة الرياض","name_en":"Riyadh Region"}},
{"type":"Feature","geometry":{"type":"Polygon","coordinates":[[[44.5167,19.5125],[44.4742,19.5433],[44.415,19.5944],[44.3294,19.6614],[44.2711,19.7128],[44.2294,19.7544],[44.1239,19.8447],[44.0725,19.9111],[44.0244,19.9972],[43.9906,20.0422],[43.9305,20.1006],[43.9214,20.1233],[43.9447,20.2461],[43.9675,20.3358],[43.9883,20.375],[44.0483,20.4594],[44.063,20.4972],[44.0642,20.5378],[44.0483,20.5847],[44.0283,20.6067],[43.9664,20.6578],[43.9239,20.705],[43.8556,20.815],[43.8156,20.8592],[43.7725,20.8917],[43.7125,20.9456],[43.6675,20.9761],[43.5744,20.9472],[43.5272,20.9236],[43.4806,20.8936],[43.4311,20.8544],[43.385,20.8333],[43.3397,20.8356],[43.2542,20.8658],[43.1892,20.8664],[43.1439,20.8536],[43.0986,20.8286],[43.0553,20.8175],[42.9906,20.8206],[42.9444,20.8133],[42.92,20.8019],[42.8769,20.765],[42.8439,20.7275],[42.7983,20.6978],[42.7258,20.6739],[42.6347,20.6258],[42.5642,20.57],[42.4469,20.4672],[42.3892,20.4108],[42.3178,20.3578],[42.2744,20.3419],[42.2314,20.3425],[42.2081,20.3486],[42.1675,20.3767],[42.1381,20.4197],[42.1022,20.4908],[42.0739,20.5542],[42.0319,20.6247],[42.0211,20.5911],[41.9761,20.4894],[41.9697,20.4494],[41.9764,20.4278],[42.0175,20.3953],[42.0358,20.3739],[42.0414,20.3522],[42.0308,20.3106],[42.0089,20.2906],[41.935,20.2422],[41.8639,20.2],[41.84,20.1819],[41.8225,20.1517],[41.813,20.1108],[41.8222,20.0356],[41.8133,20.0158],[41.7631,19.9339],[41.7319,19.8731],[41.6985,19.7969],[41.7422,19.8172],[41.8086,19.8136],[41.8286,19.8053],[41.8622,19.7619],[41.8683,19.7203],[41.8558,19.6583],[41.8433,19.6175],[41.8286,19.5503],[41.8347,19.5094],[41.8911,19.4272],[41.8922,19.3811],[41.8742,19.3428],[41.8489,19.2614],[41.835,19.2419],[41.7908,19.2214],[41.7489,19.2197],[41.6533,19.2333],[41.5883,19.2231],[41.5442,19.1978],[41.4758,19.1453],[41.4542,19.1436],[41.3969,19.1953],[41.3886,19.1544],[41.3917,19.0897],[41.3867,19.0506],[41.3828,18.9194],[41.3883,18.8786],[41.4108,18.8161],[41.4303,18.7967],[41.4719,18.7833],[41.5578,18.7881],[41.6236,18.7844],[41.6667,18.7775],[41.7075,18.7625],[41.7278,18.7442],[41.7511,18.6783],[41.775,18.5944],[41.8106,18.5108],[41.8139,18.4703],[41.7958,18.3978],[41.7706,18.3139],[41.7922,18.3208],[41.8797,18.3281],[41.9197,18.3183],[41.9367,18.2983],[41.94,18.2575],[41.9194,18.1578],[41.9125,18.0767],[41.9208,18.055],[41.9422,18.0419],[42.0278,18.0544],[42.0903,18.0481],[42.1094,18.0325],[42.1217,18.0106],[42.1361,17.9519],[42.1464,17.9303],[42.1675,17.9125],[42.2094,17.9064],[42.2767,17.9025],[42.3667,17.9075],[42.4078,17.9014],[42.445,17.8669],[42.4753,17.7836],[42.4911,17.7633],[42.5489,17.7186],[42.5853,17.6753],[42.6086,17.6636],[42.6497,17.6567],[42.6703,17.6617],[42.6867,17.68],[42.7144,17.8039],[42.735,17.8678],[42.77,17.9261],[42.7875,17.9442],[42.8533,17.9861],[42.8969,18.0064],[42.9175,18.0106],[42.938,18],[42.9464,17.9794],[42.9361,17.8764],[42.9425,17.8567],[42.9617,17.8417],[43.0258,17.8192],[43.0469,17.8061],[43.0814,17.7625],[43.0986,17.7183],[43.1236,17.6772],[43.1436,17.6614],[43.2083,17.6517],[43.2292,17.6447],[43.3209,17.5327],[43.3548,17.5564],[43.3992,17.5564],[43.4196,17.5658],[43.4455,17.5501],[43.4846,17.5451],[43.4957,17.5269],[43.5272,17.5143],[43.5665,17.4834],[43.6178,17.4261],[43.6722,17.56],[43.6706,17.6033],[43.6422,17.685],[43.6344,17.725],[43.6467,17.7444],[43.6564,17.7858],[43.6547,17.8539],[43.6669,17.9136],[43.6758,17.9792],[43.6747,18.04],[43.665,18.0792],[43.6472,18.1261],[43.6361,18.1683],[43.6386,18.2142],[43.6642,18.2611],[43.7536,18.3561],[43.8314,18.4333],[43.9008,18.4919],[43.9706,18.5439],[44.023,18.6064],[44.0539,18.69],[44.0814,18.7192],[44.1297,18.7406],[44.1967,18.7506],[44.2647,18.775],[44.3339,18.8142],[44.3692,18.8531],[44.3975,18.9144],[44.4022,18.9731],[44.3961,19.0406],[44.3728,19.1269],[44.3586,19.1686],[44.3514,19.2094],[44.3714,19.2533],[44.3933,19.27],[44.4831,19.3067],[44.5155,19.345],[44.5219,19.3858],[44.5125,19.4511],[44.5167,19.5125]]]},"properties":{"code":"SA-14","name_ar":"منطقة عسير","name_en":"'Asir Region"}},
{"type":"Feature","geometry":{"type":"Polygon","coordinates":[[[41.9864,23.9491],[41.9556,23.9519],[41.8858,23.9667],[41.8397,23.9719],[41.7928,23.9661],[41.7458,23.9444],[41.7314,23.9242],[41.7289,23.8825],[41.7544,23.8378],[41.7675,23.7753],[41.7658,23.7292],[41.7458,23.67],[41.715,23.6292],[41.645,23.5894],[41.5975,23.5689],[41.545,23.5522],[41.4717,23.5225],[41.3739,23.4731],[41.3072,23.4331],[41.2697,23.3961],[41.2756,23.3561],[41.3422,23.3119],[41.4081,23.2839],[41.4528,23.2594],[41.4644,23.2172],[41.4239,23.1794],[41.3308,23.1528],[41.2836,23.135],[41.2358,23.1058],[41.1933,23.0692],[41.1753,23.0478],[41.1114,22.9853],[41.0167,22.9078],[40.915,22.8425],[40.7928,22.7531],[40.7608,22.715],[40.6844,22.5967],[40.6631,22.5736],[40.6161,22.5731],[40.4192,22.6325],[40.3719,22.6042],[40.3317,22.5606],[40.2847,22.5219],[40.2172,22.4917],[40.1683,22.49],[40.1247,22.4956],[40.0792,22.5067],[40.0611,22.5278],[40.0603,22.5492],[40.078,22.6083],[40.0844,22.6744],[40.0714,22.7156],[40.0544,22.7358],[40.0108,22.7669],[39.94,22.7919],[39.8953,22.7986],[39.8781,22.8186],[39.8764,22.8417],[39.9181,22.9231],[39.9442,22.9847],[39.9553,23.0508],[39.9514,23.0953],[39.9353,23.1347],[39.9142,23.1522],[39.8469,23.1531],[39.7761,23.1439],[39.7294,23.1317],[39.5594,23.0792],[39.4731,23.0567],[39.4528,23.0722],[39.4483,23.1553],[39.4403,23.1758],[39.4156,23.1853],[39.35,23.1792],[39.3014,23.1653],[39.2306,23.1542],[39.1814,23.1789],[39.1369,23.22],[39.0844,23.2839],[39.06,23.3067],[38.9897,23.3561],[38.9494,23.4258],[38.9281,23.4478],[38.9042,23.4569],[38.8147,23.4322],[38.7422,23.4253],[38.6658,23.4225],[38.6747,23.3825],[38.6672,23.3581],[38.6913,23.3326],[38.6841,23.2981],[38.7084,23.268],[38.7157,23.2426],[38.7456,23.1963],[38.7682,23.1822],[38.7829,23.1953],[38.797,23.1341],[38.8092,23.1142],[38.8085,23.0615],[38.7882,23.0375],[38.8144,22.9886],[38.8673,22.9719],[38.8965,22.969],[38.919,22.9575],[38.9198,22.9406],[38.9365,22.9019],[38.9725,22.8631],[38.9574,22.8458],[38.9306,22.8538],[38.8878,22.9228],[38.8623,22.9401],[38.8494,22.9381],[38.8829,22.8939],[38.8875,22.878],[38.9185,22.8329],[38.9422,22.8122],[38.9537,22.7878],[38.9848,22.7513],[38.9878,22.7325],[39.0179,22.6944],[39.0319,22.643],[39.0785,22.5804],[39.0865,22.5551],[39.0796,22.4933],[39.0892,22.4606],[39.0754,22.4037],[39.0854,22.3866],[39.1232,22.3787],[39.126,22.413],[39.1432,22.4066],[39.1353,22.37],[39.0994,22.3231],[39.0818,22.2531],[39.041,22.2033],[39.0421,22.1455],[39.062,22.1455],[39.0505,22.1089],[39.0471,22.0587],[39.0187,22.0661],[39.0105,22.0345],[39.017,22.0005],[39.004,21.9851],[38.9767,21.9975],[38.98,22.0209],[38.9336,22.0178],[38.9473,21.9745],[38.9704,21.9506],[38.9475,21.9202],[38.9674,21.8851],[39.0016,21.8424],[39.0132,21.8176],[39.0432,21.794],[39.0536,21.7581],[39.0782,21.724],[39.0964,21.6771],[39.1074,21.6153],[39.1112,21.5447],[39.1215,21.5292],[39.143,21.5336],[39.1629,21.4998],[39.1622,21.4823],[39.1735,21.4299],[39.1895,21.4146],[39.1691,21.3635],[39.1326,21.3448],[39.1115,21.349],[39.1031,21.3107],[39.1398,21.2404],[39.1662,21.2161],[39.1744,21.1894],[39.1745,21.1414],[39.1964,21.0958],[39.2391,21.0752],[39.2506,21.0458],[39.2668,21.0347],[39.2768,21.0126],[39.2715,20.9796],[39.2853,20.9561],[39.3225,20.9177],[39.3477,20.9233],[39.3703,20.8942],[39.3591,20.8816],[39.4086,20.8413],[39.4236,20.8182],[39.4316,20.79],[39.4612,20.7402],[39.4795,20.7381],[39.4477,20.7812],[39.4829,20.7734],[39.504,20.7478],[39.4865,20.7265],[39.4988,20.7015],[39.533,20.6578],[39.5339,20.6418],[39.5612,20.6209],[39.5813,20.5846],[39.5837,20.565],[39.6,20.542],[39.6401,20.5119],[39.6528,20.4811],[39.67,20.4718],[39.6691,20.4511],[39.7091,20.4198],[39.7305,20.3916],[39.7964,20.3458],[39.8171,20.3395],[39.8698,20.2952],[39.9169,20.2715],[39.9447,20.2629],[39.9384,20.3021],[39.9756,20.2802],[39.99,20.2641],[40.0103,20.2822],[40.0458,20.2788],[40.0622,20.2884],[40.1169,20.2683],[40.1262,20.2325],[40.1444,20.2249],[40.169,20.1907],[40.1963,20.1958],[40.2361,20.1918],[40.2448,20.1549],[40.2863,20.0997],[40.3117,20.0983],[40.329,20.0838],[40.3725,20.0755],[40.4105,20.0529],[40.4304,20.0285],[40.5068,19.9821],[40.5385,19.9672],[40.5474,19.9535],[40.5461,19.9194],[40.5363,19.9034],[40.5734,19.8889],[40.5856,19.8667],[40.587,19.8288],[40.6245,19.812],[40.6319,19.7797],[40.659,19.7944],[40.6766,19.7833],[40.7371,19.7983],[40.7886,19.7342],[40.8086,19.6717],[40.7995,19.6388],[40.8068,19.6192],[40.788,19.6088],[40.7997,19.5855],[40.8287,19.5744],[40.8607,19.5479],[40.9222,19.535],[40.9468,19.5021],[40.9639,19.4942],[40.9617,19.4659],[40.9477,19.4223],[40.9492,19.3904],[40.9819,19.3324],[41.0119,19.3194],[41.0168,19.2913],[41.0317,19.2829],[41.0514,19.2374],[41.0423,19.2246],[41.0458,19.1778],[41.0715,19.1346],[41.0983,19.1035],[41.1489,19.0967],[41.1654,19.0687],[41.1667,19.0404],[41.1318,18.9654],[41.1495,18.9338],[41.1605,18.8827],[41.1897,18.8599],[41.2434,18.8467],[41.2351,18.8041],[41.2061,18.7215],[41.2086,18.7073],[41.2387,18.6743],[41.2577,18.6123],[41.2785,18.593],[41.3063,18.583],[41.3551,18.5822],[41.3833,18.5381],[41.4185,18.5145],[41.4364,18.4726],[41.4309,18.4642],[41.4549,18.4111],[41.4419,18.3955],[41.459,18.3366],[41.4792,18.3163],[41.4713,18.3033],[41.5084,18.2845],[41.5155,18.2538],[41.5356,18.2226],[41.5315,18.2132],[41.5716,18.165],[41.5856,18.0952],[41.6225,18.1814],[41.6389,18.1997],[41.7233,18.2383],[41.7556,18.2753],[41.7706,18.3139],[41.7958,18.3978],[41.8139,18.4703],[41.8106,18.5108],[41.775,18.5944],[41.7511,18.6783],[41.7278,18.7442],[41.7075,18.7625],[41.6667,18.7775],[41.6236,18.7844],[41.5578,18.7881],[41.4719,18.7833],[41.4303,18.7967],[41.4108,18.8161],[41.3883,18.8786],[41.3828,18.9194],[41.3867,19.0506],[41.3917,19.0897],[41.3886,19.1544],[41.3969,19.1953],[41.4542,19.1436],[41.4758,19.1453],[41.5442,19.1978],[41.5883,19.2231],[41.6533,19.2333],[41.7489,19.2197],[41.7908,19.2214],[41.835,19.2419],[41.8489,19.2614],[41.8742,19.3428],[41.8922,19.3811],[41.8911,19.4272],[41.8347,19.5094],[41.8286,19.5503],[41.8433,19.6175],[41.8558,19.6583],[41.8683,19.7203],[41.8622,19.7619],[41.8286,19.8053],[41.8086,19.8136],[41.7422,19.8172],[41.6985,19.7969],[41.6756,19.7831],[41.6333,19.7789],[41.5417,19.7819],[41.52,19.7794],[41.4975,19.7658],[41.4569,19.7064],[41.4278,19.6433],[41.3919,19.545],[41.3794,19.4969],[41.37,19.4358],[41.3531,19.3961],[41.3306,19.3797],[41.2889,19.3664],[41.2447,19.3622],[41.19,19.3769],[41.1514,19.4156],[41.1264,19.4572],[41.0855,19.4969],[41.0011,19.5381],[40.9778,19.5567],[40.9633,19.5803],[40.9639,19.6408],[40.9711,19.7022],[40.9692,19.7225],[40.9511,19.7658],[40.9447,19.8092],[40.9558,19.8686],[40.9592,19.9328],[40.9439,19.9758],[40.9256,19.9961],[40.9044,20.0053],[40.8194,20.0261],[40.8,20.0453],[40.795,20.0842],[40.9111,20.1964],[40.9572,20.2144],[41.0222,20.2206],[41.1133,20.2372],[41.1356,20.2472],[41.1483,20.2658],[41.1753,20.3447],[41.2533,20.4714],[41.2569,20.5358],[41.2358,20.595],[41.2247,20.66],[41.2269,20.6792],[41.245,20.7178],[41.2844,20.7564],[41.3294,20.7661],[41.3706,20.7594],[41.4119,20.7297],[41.4267,20.7086],[41.4522,20.6264],[41.4783,20.5853],[41.5194,20.5656],[41.5414,20.5692],[41.6064,20.6008],[41.6533,20.6139],[41.6769,20.6153],[41.7742,20.6083],[41.8164,20.6236],[41.8614,20.6533],[41.9103,20.6775],[41.953,20.6853],[41.9744,20.6775],[42.0147,20.6469],[42.0319,20.6247],[42.0739,20.5542],[42.1022,20.4908],[42.1381,20.4197],[42.1675,20.3767],[42.2081,20.3486],[42.2314,20.3425],[42.2744,20.3419],[42.3178,20.3578],[42.3892,20.4108],[42.4469,20.4672],[42.5642,20.57],[42.6347,20.6258],[42.7258,20.6739],[42.7983,20.6978],[42.8439,20.7275],[42.8769,20.765],[42.92,20.8019],[42.9444,20.8133],[42.9906,20.8206],[43.0553,20.8175],[43.0986,20.8286],[43.1439,20.8536],[43.1892,20.8664],[43.2542,20.8658],[43.3397,20.8356],[43.385,20.8333],[43.4311,20.8544],[43.4806,20.8936],[43.5272,20.9236],[43.5744,20.9472],[43.6675,20.9761],[43.6255,21.0361],[43.6125,21.0603],[43.5417,21.1683],[43.4781,21.2556],[43.4033,21.3414],[43.3864,21.3814],[43.3875,21.4228],[43.3975,21.4628],[43.4303,21.5686],[43.4375,21.6117],[43.435,21.6736],[43.4267,21.735],[43.4217,21.8],[43.4444,21.8375],[43.4781,21.8739],[43.5064,21.9331],[43.5097,21.9772],[43.4869,22.1081],[43.4717,22.2217],[43.4597,22.2881],[43.4572,22.35],[43.4683,22.415],[43.485,22.4767],[43.4867,22.4989],[43.4761,22.5189],[43.4519,22.5306],[43.3828,22.5397],[43.3317,22.5522],[43.2889,22.5569],[43.2433,22.5478],[43.148,22.5203],[43.1011,22.5197],[43.0175,22.5517],[42.9833,22.5936],[42.9822,22.6342],[42.9892,22.6744],[42.9892,22.7575],[43.0147,22.8169],[43.0017,22.8594],[42.9605,22.8869],[42.8917,22.9067],[42.6464,22.9261],[42.5067,22.9214],[42.4617,22.9267],[42.3953,22.9536],[42.3744,22.9706],[42.3461,23.0136],[42.2864,23.1381],[42.225,23.2728],[42.2136,23.315],[42.1986,23.4239],[42.1822,23.4656],[42.1461,23.5283],[42.1317,23.57],[42.1142,23.6567],[42.0881,23.7017],[42.0667,23.7175],[42.0042,23.7497],[41.9842,23.7683],[41.9764,23.7892],[41.9736,23.8519],[41.9864,23.9491]]]},"properties":{"code":"SA-02","name_ar":"منطقة مكة المكرمة","name_en":"Makkah Region"}},
{"type":"Feature","geometry":{"type":"MultiPolygon","coordinates":[[[[34.6519,27.9247],[34.6705,27.9419],[34.6964,27.9306],[34.7036,27.9057],[34.7328,27.9137],[34.7357,27.9349],[34.7171,27.9541],[34.6913,27.9591],[34.6741,27.9504],[34.6519,27.9247]]],[[[34.4944,28.0008],[34.5024,27.9453],[34.5268,27.9376],[34.5528,27.9122],[34.6202,27.9193],[34.6191,27.933],[34.5894,27.9469],[34.5696,27.9704],[34.5496,27.9626],[34.5181,27.9684],[34.5146,27.9835],[34.552,28.0007],[34.5158,28.0142],[34.4944,28.0008]]],[[[37.0653,24.9575],[37.0717,24.9634],[37.1114,24.9491],[37.0946,24.9785],[37.0708,24.9856],[37.0653,24.9575]]],[[[36.9669,25.4715],[36.9827,25.4341],[37.006,25.4448],[36.9888,25.4734],[36.9669,25.4715]]],[[[36.8274,25.5459],[36.8406,25.5343],[36.8672,25.5557],[36.8403,25.5706],[36.8274,25.5459]]],[[[36.4821,25.6443],[36.5076,25.6134],[36.5314,25.6281],[36.4821,25.6443]]],[[[39.7912,28.5448],[39.7803,28.5738],[39.7509,28.5993],[39.7183,28.6159],[39.6638,28.6264],[39.6341,28.6419],[39.482,28.6884],[39.3983,28.7108],[39.2943,28.7634],[39.239,28.806],[39.1574,28.8536],[39.0396,28.9508],[38.9982,28.9926],[38.9668,29.015],[38.898,29.0525],[38.8719,29.0714],[38.7955,29.1015],[38.7292,29.1469],[38.6686,29.1812],[38.6052,29.225],[38.5395,29.2514],[38.488,29.2535],[38.4032,29.2325],[38.3383,29.2039],[38.2871,29.186],[38.238,29.1782],[38.2098,29.201],[38.2043,29.225],[38.2689,29.3491],[38.3205,29.4105],[38.3567,29.4454],[38.3919,29.4719],[38.3974,29.5053],[38.2052,29.6061],[38.1018,29.6244],[37.9958,29.6638],[37.9216,29.6973],[37.9126,29.7084],[37.8616,29.737],[37.8118,29.7746],[37.6671,29.8531],[37.5784,29.9173],[37.5016,29.9998],[37.1425,29.9366],[36.7535,29.8685],[36.5045,29.4999],[36.1646,29.2553],[36.0728,29.1834],[35.9662,29.1987],[35.8459,29.2208],[35.2318,29.3164],[35.027,29.3492],[34.9607,29.3574],[34.9443,29.3234],[34.9515,29.3022],[34.9286,29.2905],[34.9411,29.2407],[34.9095,29.2206],[34.8939,29.1776],[34.8924,29.1494],[34.8813,29.1423],[34.8725,29.0699],[34.8552,29.0501],[34.8477,29.025],[34.8612,28.9947],[34.8448,28.9718],[34.8434,28.9369],[34.8215,28.8839],[34.8389,28.8729],[34.8286,28.8316],[34.8319,28.8113],[34.815,28.7764],[34.8057,28.7243],[34.7802,28.6794],[34.7812,28.6574],[34.7975,28.6131],[34.7922,28.5775],[34.8011,28.5601],[34.8055,28.523],[34.7687,28.4706],[34.7549,28.4242],[34.7393,28.406],[34.7229,28.349],[34.696,28.2932],[34.6738,28.2585],[34.6641,28.201],[34.647,28.1889],[34.6048,28.1386],[34.5744,28.1086],[34.5741,28.0873],[34.606,28.0886],[34.6041,28.0619],[34.6243,28.024],[34.6391,28.0293],[34.648,28.0618],[34.6603,28.0694],[34.6493,28.0929],[34.671,28.1078],[34.6795,28.1317],[34.7224,28.119],[34.7461,28.1055],[34.7427,28.0838],[34.785,28.0888],[34.8036,28.108],[34.8183,28.0939],[34.8345,28.1105],[34.8488,28.0703],[34.8664,28.0801],[34.9275,28.0758],[34.9484,28.0926],[35.0026,28.1101],[35.0297,28.102],[35.0592,28.1108],[35.1077,28.0685],[35.1463,28.07],[35.155,28.0587],[35.2008,28.0552],[35.2223,28.0465],[35.2252,28.0305],[35.1985,28.0281],[35.1675,28.0128],[35.1653,28.0014],[35.2078,27.9859],[35.2105,27.9773],[35.2675,27.95],[35.2816,27.9162],[35.3055,27.8973],[35.349,27.8518],[35.3604,27.7966],[35.4084,27.7844],[35.4294,27.7738],[35.4405,27.745],[35.4618,27.7223],[35.4727,27.6772],[35.486,27.6506],[35.5132,27.6252],[35.5261,27.6031],[35.5348,27.5314],[35.5428,27.5141],[35.5853,27.4696],[35.5921,27.4337],[35.6615,27.3604],[35.7254,27.3308],[35.7455,27.3152],[35.755,27.288],[35.8073,27.2252],[35.8174,27.197],[35.7895,27.1705],[35.7882,27.1407],[35.8,27.1134],[35.848,27.0736],[35.9158,26.9961],[35.9499,26.9831],[35.9831,26.9449],[36.0016,26.9399],[36.0191,26.9104],[36.045,26.8899],[36.045,26.8562],[36.0623,26.8296],[36.0665,26.8042],[36.0915,26.7746],[36.0919,26.7525],[36.1079,26.731],[36.1322,26.7268],[36.1541,26.7102],[36.1739,26.6695],[36.2031,26.6578],[36.2232,26.6371],[36.2475,26.588],[36.2833,26.547],[36.3121,26.4938],[36.3204,26.468],[36.3413,26.4366],[36.3444,26.4054],[36.3734,26.3504],[36.3991,26.3144],[36.4103,26.2874],[36.4337,26.2633],[36.4645,26.214],[36.4828,26.1747],[36.4843,26.1425],[36.4961,26.1165],[36.5208,26.0956],[36.5739,26.0622],[36.6223,26.0623],[36.6786,26.0499],[36.7058,26.0308],[36.7102,25.9768],[36.6945,25.9218],[36.6756,25.8873],[36.6458,25.8567],[36.6722,25.8437],[36.6972,25.7994],[36.7458,25.7387],[36.7648,25.7393],[36.7986,25.7094],[36.8145,25.7173],[36.8037,25.7552],[36.8658,25.6972],[36.897,25.6619],[36.9247,25.6577],[36.9388,25.6463],[36.9466,25.622],[36.9672,25.6045],[36.9747,25.5532],[37.0004,25.5463],[36.9994,25.4995],[37.0228,25.4903],[37.0508,25.4593],[37.0769,25.4421],[37.0749,25.4009],[37.091,25.3811],[37.0888,25.3528],[37.1087,25.3366],[37.1109,25.3134],[37.1316,25.2962],[37.1732,25.2404],[37.1891,25.2352],[37.2073,25.2091],[37.2391,25.1902],[37.2642,25.1308],[37.2632,25.0893],[37.2439,25.0717],[37.254,25.0358],[37.286,24.9906],[37.2833,24.9597],[37.2576,24.9316],[37.2492,24.8955],[37.265,24.874],[37.255,24.8549],[37.2224,24.8244],[37.1643,24.8391],[37.1552,24.8238],[37.173,24.7939],[37.2132,24.8037],[37.2302,24.7931],[37.2328,24.7669],[37.2097,24.7579],[37.2277,24.7236],[37.2278,24.7025],[37.2621,24.6916],[37.3004,24.6655],[37.3179,24.6356],[37.337,24.6186],[37.3637,24.5759],[37.3726,24.5482],[37.3858,24.5349],[37.421,24.5504],[37.4449,24.5788],[37.48,24.6483],[37.4953,24.6935],[37.5189,24.695],[37.5495,24.6659],[37.5618,24.6625],[37.6082,24.6711],[37.6343,24.6599],[37.7281,24.6644],[37.764,24.6427],[37.8055,24.6547],[37.8496,24.7171],[37.8387,24.7343],[37.8015,24.7467],[37.805,24.7634],[37.8336,24.7713],[37.8622,24.7875],[37.9188,24.7931],[37.9973,24.7858],[38.0231,24.7623],[38.0427,24.769],[38.0505,24.7881],[38.0494,24.8593],[38.0275,24.8834],[37.9872,24.8553],[37.9709,24.8626],[37.9345,24.9383],[37.8936,24.9691],[37.8779,24.9921],[37.8639,25.0369],[37.8577,25.0756],[37.8644,25.1653],[37.7888,25.2488],[37.7832,25.2925],[37.7966,25.3233],[37.7815,25.3783],[37.749,25.4371],[37.7389,25.4629],[37.7249,25.524],[37.7327,25.5677],[37.8291,25.6355],[37.8504,25.6686],[37.837,25.6994],[37.8045,25.7218],[37.7776,25.7319],[37.7434,25.7583],[37.7187,25.7611],[37.6694,25.7812],[37.6128,25.7869],[37.564,25.8188],[37.5444,25.8429],[37.5371,25.867],[37.5483,25.918],[37.5399,25.9741],[37.5214,26.011],[37.4486,26.103],[37.4172,26.136],[37.3925,26.1529],[37.3426,26.2016],[37.3241,26.2268],[37.3264,26.2481],[37.3813,26.2902],[37.3863,26.3081],[37.3723,26.335],[37.3443,26.3378],[37.2625,26.3115],[37.2395,26.3131],[37.207,26.3305],[37.1986,26.3703],[37.2311,26.4353],[37.2238,26.4555],[37.1442,26.5183],[37.1145,26.5659],[37.1145,26.6422],[37.1397,26.6803],[37.1476,26.7055],[37.142,26.7313],[37.1207,26.7531],[37.0512,26.7845],[37.0187,26.8254],[36.9811,26.84],[36.9581,26.835],[36.9312,26.84],[36.9239,26.8613],[36.948,26.9246],[36.9458,26.9661],[36.9609,27.0188],[36.9548,27.0463],[36.9396,27.0681],[36.9088,27.0782],[36.8466,27.0558],[36.8062,27.0659],[36.7603,27.104],[36.7519,27.1214],[36.7384,27.2273],[36.7586,27.289],[36.7911,27.3164],[36.8589,27.3512],[36.8679,27.368],[36.915,27.3848],[36.9396,27.4067],[36.9772,27.4509],[37.0035,27.4509],[37.0377,27.4302],[37.0764,27.4218],[37.1214,27.4189],[37.1987,27.4216],[37.2495,27.4376],[37.2768,27.435],[37.2951,27.4174],[37.3033,27.3752],[37.3153,27.3666],[37.3568,27.3767],[37.4188,27.3797],[37.47,27.4216],[37.5193,27.4249],[37.5585,27.4492],[37.5858,27.4795],[37.6449,27.5228],[37.6732,27.5243],[37.6964,27.5131],[37.7547,27.4664],[37.7801,27.4302],[37.8063,27.4178],[37.8578,27.435],[37.8866,27.4268],[37.9229,27.401],[37.9322,27.3704],[37.9277,27.324],[37.8967,27.2975],[37.8896,27.2583],[37.9135,27.1544],[37.9796,27.1096],[37.9867,27.0318],[38.0039,26.9885],[38.0454,26.9552],[38.066,26.9272],[38.0805,26.8764],[38.1011,26.8469],[38.1213,26.8316],[38.1448,26.8278],[38.2199,26.8286],[38.2943,26.8129],[38.3455,26.7946],[38.3697,26.7927],[38.4594,26.8099],[38.4811,26.8181],[38.6093,26.8461],[38.6776,26.8465],[38.7318,26.8289],[38.8047,26.8278],[38.8779,26.8304],[38.913,26.8398],[38.9825,26.8405],[39.0423,26.8289],[39.0718,26.8278],[39.2561,26.8028],[39.3435,26.8005],[39.3782,26.8054],[39.4208,26.829],[39.4409,26.847],[39.5023,26.8583],[39.5341,26.8942],[39.5685,26.9182],[39.5791,26.9455],[39.6006,26.9601],[39.6286,27.0099],[39.7335,27.1199],[39.7433,27.1623],[39.7611,27.2045],[39.7855,27.2302],[39.8256,27.2385],[39.8871,27.2093],[39.8867,27.1833],[39.9078,27.1589],[39.969,27.1477],[39.9782,27.1255],[39.9998,27.1294],[40.011,27.1691],[40.0046,27.1961],[40.0115,27.2273],[40.011,27.2787],[39.9885,27.3043],[39.972,27.334],[39.9539,27.3865],[39.9249,27.4283],[39.9183,27.4539],[39.9207,27.4976],[39.912,27.5897],[39.8964,27.6445],[39.8819,27.6796],[39.8324,27.7646],[39.7775,27.8207],[39.7478,27.8426],[39.6878,27.8719],[39.6613,27.8761],[39.6019,27.911],[39.4777,27.9508],[39.4147,27.9746],[39.3784,28.0004],[39.3675,28.0224],[39.3693,28.0622],[39.4165,28.1243],[39.4283,28.1498],[39.4557,28.1872],[39.4831,28.2104],[39.5022,28.2384],[39.5313,28.2629],[39.549,28.2893],[39.5916,28.3254],[39.608,28.3543],[39.6674,28.3959],[39.6914,28.406],[39.745,28.4677],[39.7541,28.4907],[39.7912,28.5448]]]]},"properties":{"code":"SA-07","name_ar":"منطقة تبوك","name_en":"Tabuk Region"}},
{"type":"Feature","geometry":{"type":"Polygon","coordinates":[[[39.5023,26.8583],[39.4409,26.847],[39.4208,26.829],[39.3782,26.8054],[39.3435,26.8005],[39.2561,26.8028],[39.0718,26.8278],[39.0423,26.8289],[38.9825,26.8405],[38.913,26.8398],[38.8779,26.8304],[38.8047,26.8278],[38.7318,26.8289],[38.6776,26.8465],[38.6093,26.8461],[38.4811,26.8181],[38.4594,26.8099],[38.3697,26.7927],[38.3455,26.7946],[38.2943,26.8129],[38.2199,26.8286],[38.1448,26.8278],[38.1213,26.8316],[38.1011,26.8469],[38.0805,26.8764],[38.066,26.9272],[38.0454,26.9552],[38.0039,26.9885],[37.9867,27.0318],[37.9796,27.1096],[37.9135,27.1544],[37.8896,27.2583],[37.8967,27.2975],[37.9277,27.324],[37.9322,27.3704],[37.9229,27.401],[37.8866,27.4268],[37.8578,27.435],[37.8063,27.4178],[37.7801,27.4302],[37.7547,27.4664],[37.6964,27.5131],[37.6732,27.5243],[37.6449,27.5228],[37.5858,27.4795],[37.5585,27.4492],[37.5193,27.4249],[37.47,27.4216],[37.4188,27.3797],[37.3568,27.3767],[37.3153,27.3666],[37.3033,27.3752],[37.2951,27.4174],[37.2768,27.435],[37.2495,27.4376],[37.1987,27.4216],[37.1214,27.4189],[37.0764,27.4218],[37.0377,27.4302],[37.0035,27.4509],[36.9772,27.4509],[36.9396,27.4067],[36.915,27.3848],[36.8679,27.368],[36.8589,27.3512],[36.7911,27.3164],[36.7586,27.289],[36.7384,27.2273],[36.7519,27.1214],[36.7603,27.104],[36.8062,27.0659],[36.8466,27.0558],[36.9088,27.0782],[36.9396,27.0681],[36.9548,27.0463],[36.9609,27.0188],[36.9458,26.9661],[36.948,26.9246],[36.9239,26.8613],[36.9312,26.84],[36.9581,26.835],[36.9811,26.84],[37.0187,26.8254],[37.0512,26.7845],[37.1207,26.7531],[37.142,26.7313],[37.1476,26.7055],[37.1397,26.6803],[37.1145,26.6422],[37.1145,26.5659],[37.1442,26.5183],[37.2238,26.4555],[37.2311,26.4353],[37.1986,26.3703],[37.207,26.3305],[37.2395,26.3131],[37.2625,26.3115],[37.3443,26.3378],[37.3723,26.335],[37.3863,26.3081],[37.3813,26.2902],[37.3264,26.2481],[37.3241,26.2268],[37.3426,26.2016],[37.3925,26.1529],[37.4172,26.136],[37.4486,26.103],[37.5214,26.011],[37.5399,25.9741],[37.5483,25.918],[37.5371,25.867],[37.5444,25.8429],[37.564,25.8188],[37.6128,25.7869],[37.6694,25.7812],[37.7187,25.7611],[37.7434,25.7583],[37.7776,25.7319],[37.8045,25.7218],[37.837,25.6994],[37.8504,25.6686],[37.8291,25.6355],[37.7327,25.5677],[37.7249,25.524],[37.7389,25.4629],[37.749,25.4371],[37.7815,25.3783],[37.7966,25.3233],[37.7832,25.2925],[37.7888,25.2488],[37.8644,25.1653],[37.8577,25.0756],[37.8639,25.0369],[37.8779,24.9921],[37.8936,24.9691],[37.9345,24.9383],[37.9709,24.8626],[37.9872,24.8553],[38.0275,24.8834],[38.0494,24.8593],[38.0505,24.7881],[38.0427,24.769],[38.0231,24.7623],[37.9973,24.7858],[37.9188,24.7931],[37.8622,24.7875],[37.8336,24.7713],[37.805,24.7634],[37.8015,24.7467],[37.8387,24.7343],[37.8496,24.7171],[37.8055,24.6547],[37.764,24.6427],[37.7281,24.6644],[37.6343,24.6599],[37.6082,24.6711],[37.5618,24.6625],[37.5495,24.6659],[37.5189,24.695],[37.4953,24.6935],[37.48,24.6483],[37.4449,24.5788],[37.421,24.5504],[37.3858,24.5349],[37.4148,24.5111],[37.4355,24.4673],[37.4614,24.4367],[37.4615,24.4138],[37.4387,24.4173],[37.4249,24.3941],[37.4269,24.3694],[37.4694,24.3413],[37.4951,24.3047],[37.5009,24.2868],[37.5222,24.2699],[37.5519,24.2734],[37.5738,24.2483],[37.619,24.2468],[37.6337,24.2633],[37.6139,24.2896],[37.6461,24.2863],[37.692,24.301],[37.697,24.278],[37.7197,24.2581],[37.7488,24.2615],[37.7634,24.2479],[37.7825,24.2077],[37.8124,24.1922],[37.8475,24.1572],[37.8938,24.1551],[37.9289,24.1463],[37.934,24.1589],[37.9139,24.195],[37.9394,24.2019],[37.9315,24.1717],[37.9395,24.1597],[37.9338,24.145],[37.9859,24.1128],[38.0184,24.083],[38.0649,24.059],[38.0777,24.0674],[38.1069,24.0536],[38.1192,24.0359],[38.2161,23.9528],[38.2551,23.9507],[38.2856,23.9385],[38.3115,23.9007],[38.3556,23.8787],[38.3785,23.8584],[38.4043,23.8155],[38.44,23.8061],[38.4649,23.7674],[38.4631,23.7361],[38.483,23.6806],[38.5061,23.6568],[38.5366,23.6059],[38.5563,23.5498],[38.605,23.5713],[38.5998,23.542],[38.6376,23.5073],[38.642,23.462],[38.6545,23.4221],[38.6658,23.4225],[38.7422,23.4253],[38.8147,23.4322],[38.9042,23.4569],[38.9281,23.4478],[38.9494,23.4258],[38.9897,23.3561],[39.06,23.3067],[39.0844,23.2839],[39.1369,23.22],[39.1814,23.1789],[39.2306,23.1542],[39.3014,23.1653],[39.35,23.1792],[39.4156,23.1853],[39.4403,23.1758],[39.4483,23.1553],[39.4528,23.0722],[39.4731,23.0567],[39.5594,23.0792],[39.7294,23.1317],[39.7761,23.1439],[39.8469,23.1531],[39.9142,23.1522],[39.9353,23.1347],[39.9514,23.0953],[39.9553,23.0508],[39.9442,22.9847],[39.9181,22.9231],[39.8764,22.8417],[39.8781,22.8186],[39.8953,22.7986],[39.94,22.7919],[40.0108,22.7669],[40.0544,22.7358],[40.0714,22.7156],[40.0844,22.6744],[40.078,22.6083],[40.0603,22.5492],[40.0611,22.5278],[40.0792,22.5067],[40.1247,22.4956],[40.1683,22.49],[40.2172,22.4917],[40.2847,22.5219],[40.3317,22.5606],[40.3719,22.6042],[40.4192,22.6325],[40.6161,22.5731],[40.6631,22.5736],[40.6844,22.5967],[40.7608,22.715],[40.7928,22.7531],[40.915,22.8425],[41.0167,22.9078],[41.1114,22.9853],[41.1753,23.0478],[41.1933,23.0692],[41.2358,23.1058],[41.2836,23.135],[41.3308,23.1528],[41.4239,23.1794],[41.4644,23.2172],[41.4528,23.2594],[41.4081,23.2839],[41.3422,23.3119],[41.2756,23.3561],[41.2697,23.3961],[41.3072,23.4331],[41.3739,23.4731],[41.4717,23.5225],[41.545,23.5522],[41.5975,23.5689],[41.645,23.5894],[41.715,23.6292],[41.7458,23.67],[41.7658,23.7292],[41.7675,23.7753],[41.7544,23.8378],[41.7289,23.8825],[41.7314,23.9242],[41.7458,23.9444],[41.7928,23.9661],[41.8397,23.9719],[41.8858,23.9667],[41.9556,23.9519],[41.9864,23.9491],[41.9814,24.0383],[41.9864,24.1147],[41.9853,24.1897],[42.0025,24.27],[42.0261,24.3194],[42.0214,24.3403],[41.9992,24.3867],[41.9989,24.4153],[42.0103,24.4358],[42.0561,24.4825],[42.0905,24.5433],[42.0981,24.5947],[42.1297,24.7074],[42.1303,24.7773],[42.1391,24.8357],[42.1229,24.8642],[42.0872,24.8759],[42.0505,24.9046],[42.0279,24.9134],[42.0015,24.9417],[41.9851,24.982],[41.9169,25.0424],[41.8592,25.0799],[41.8181,25.1207],[41.7661,25.1535],[41.7198,25.1678],[41.7018,25.1798],[41.6788,25.2137],[41.6675,25.2463],[41.6459,25.2721],[41.5955,25.3075],[41.5534,25.33],[41.5279,25.3372],[41.4699,25.3416],[41.4344,25.3588],[41.416,25.3898],[41.4059,25.4406],[41.3773,25.4655],[41.3224,25.4829],[41.2374,25.4798],[41.1946,25.4845],[41.1515,25.4975],[41.118,25.5232],[41.0932,25.5503],[41.0637,25.5681],[41.0341,25.5708],[40.9831,25.5614],[40.9232,25.5802],[40.8824,25.5814],[40.831,25.5622],[40.8099,25.5452],[40.7857,25.5117],[40.749,25.4472],[40.7311,25.4261],[40.6984,25.4143],[40.6376,25.4141],[40.5926,25.4056],[40.5622,25.4192],[40.5461,25.4394],[40.5186,25.44],[40.4967,25.4313],[40.4695,25.4074],[40.4521,25.3615],[40.4609,25.2962],[40.4437,25.2918],[40.3821,25.3134],[40.3487,25.3161],[40.3095,25.3093],[40.2816,25.3111],[40.2358,25.3253],[40.1803,25.3269],[40.1104,25.3437],[40.075,25.3654],[40.0377,25.3705],[40.0141,25.3839],[39.978,25.4307],[39.9637,25.4787],[39.9581,25.5254],[39.9626,25.5367],[39.9602,25.6351],[39.9711,25.6764],[39.9775,25.749],[39.9627,25.7705],[39.9515,25.8046],[39.9533,25.8464],[39.9614,25.8843],[39.9625,25.9264],[39.9526,25.9743],[39.9538,26.0843],[39.962,26.1495],[39.9464,26.1794],[39.8881,26.2643],[39.8827,26.2938],[39.8922,26.3587],[39.8862,26.3976],[39.8739,26.4199],[39.834,26.4692],[39.8102,26.5073],[39.7909,26.5243],[39.7729,26.5814],[39.761,26.5978],[39.7216,26.6324],[39.6776,26.6586],[39.6625,26.6753],[39.6593,26.7308],[39.6434,26.7395],[39.5529,26.7463],[39.5141,26.7526],[39.5007,26.7655],[39.4932,26.8114],[39.5023,26.8583]]]},"properties":{"code":"SA-03","name_ar":"منطقة المدينة المنورة","name_en":"Al Madinah Region"}},
{"type":"Feature","geometry":{"type":"Polygon","coordinates":[[[43.9276,28.1095],[43.8865,28.0813],[43.7844,27.9975],[43.7317,27.9456],[43.7291,27.9094],[43.7145,27.8484],[43.7034,27.7378],[43.7124,27.6536],[43.7204,27.6352],[43.7237,27.5373],[43.7158,27.517],[43.6454,27.5153],[43.5647,27.502],[43.4976,27.4992],[43.485,27.4762],[43.4655,27.4732],[43.4386,27.4928],[43.4154,27.4956],[43.3865,27.4735],[43.3829,27.4307],[43.3711,27.4256],[43.3116,27.4234],[43.2864,27.4138],[43.2672,27.362],[43.2631,27.3231],[43.2754,27.2988],[43.334,27.2852],[43.338,27.25],[43.2985,27.2429],[43.2297,27.2173],[43.2088,27.2018],[43.2147,27.1775],[43.2035,27.1626],[43.2174,27.1429],[43.2161,27.119],[43.1822,27.0757],[43.1754,27.0327],[43.1415,26.9867],[43.1166,26.9602],[43.0547,26.9071],[43.0331,26.9046],[43.0215,26.8855],[42.994,26.8774],[42.9684,26.9148],[42.9263,26.9163],[42.9045,26.8959],[42.8898,26.8696],[42.8479,26.8781],[42.8283,26.8528],[42.7779,26.8265],[42.7568,26.8278],[42.7408,26.8135],[42.7109,26.8227],[42.707,26.7999],[42.7173,26.7681],[42.7133,26.747],[42.6652,26.685],[42.6182,26.613],[42.5919,26.5959],[42.5736,26.5935],[42.5438,26.5648],[42.4814,26.5178],[42.4573,26.5061],[42.42,26.5194],[42.3961,26.5077],[42.3984,26.4742],[42.3763,26.4338],[42.3598,26.4215],[42.3421,26.4353],[42.3579,26.4561],[42.3377,26.4758],[42.317,26.4787],[42.2783,26.4683],[42.2488,26.4201],[42.2202,26.3894],[42.1725,26.3566],[42.1625,26.3445],[42.1669,26.31],[42.193,26.2693],[42.2016,26.2385],[42.1896,26.1886],[42.1603,26.155],[42.1403,26.1536],[42.1063,26.1752],[42.0706,26.18],[42.0316,26.1268],[41.9647,26.1062],[41.9349,26.0802],[41.9422,26.0311],[41.9109,25.9997],[41.9231,25.9539],[41.8978,25.9437],[41.8594,25.9674],[41.8366,25.974],[41.8079,25.9432],[41.8035,25.9188],[41.8183,25.8823],[41.7274,25.8131],[41.7034,25.7579],[41.6781,25.725],[41.6451,25.7196],[41.5356,25.7307],[41.5167,25.7266],[41.4743,25.7372],[41.4378,25.723],[41.4136,25.681],[41.3932,25.6311],[41.3405,25.5622],[41.2933,25.5403],[41.278,25.5179],[41.2374,25.4798],[41.3224,25.4829],[41.3773,25.4655],[41.4059,25.4406],[41.416,25.3898],[41.4344,25.3588],[41.4699,25.3416],[41.5279,25.3372],[41.5534,25.33],[41.5955,25.3075],[41.6459,25.2721],[41.6675,25.2463],[41.6788,25.2137],[41.7018,25.1798],[41.7198,25.1678],[41.7661,25.1535],[41.8181,25.1207],[41.8592,25.0799],[41.9169,25.0424],[41.9851,24.982],[42.0015,24.9417],[42.0279,24.9134],[42.0505,24.9046],[42.0872,24.8759],[42.1229,24.8642],[42.1391,24.8357],[42.1303,24.7773],[42.1297,24.7074],[42.1615,24.7129],[42.2053,24.712],[42.2533,24.7042],[42.3043,24.7089],[42.4011,24.7079],[42.4331,24.7],[42.4757,24.6117],[42.4969,24.552],[42.533,24.4839],[42.5636,24.4453],[42.7324,24.4424],[42.7861,24.4439],[42.8246,24.4689],[42.8245,24.5105],[42.8584,24.5336],[42.9028,24.5471],[42.9657,24.5439],[42.9968,24.5384],[43.048,24.516],[43.0671,24.5163],[43.1212,24.5563],[43.1336,24.5884],[43.173,24.6628],[43.2026,24.7056],[43.2079,24.7417],[43.1947,24.7528],[43.1185,24.7353],[43.1041,24.7366],[43.0943,24.7631],[43.1454,24.7813],[43.1582,24.7956],[43.117,24.8274],[43.1238,24.8486],[43.1685,24.8586],[43.2075,24.8863],[43.2194,24.92],[43.2056,24.9334],[43.1624,24.9326],[43.1191,24.8971],[43.1033,24.8996],[43.101,24.9424],[43.1426,25.0118],[43.2016,25.0167],[43.2433,25.0109],[43.2766,25.0277],[43.3722,25.0998],[43.4154,25.1594],[43.4152,25.167],[43.4539,25.2055],[43.5043,25.2151],[43.5766,25.1682],[43.6066,25.1655],[43.6555,25.1713],[43.7155,25.1993],[43.7303,25.2196],[43.7333,25.2428],[43.7241,25.3007],[43.7547,25.3197],[43.8345,25.3329],[43.9167,25.3377],[43.9703,25.3365],[44.0544,25.4477],[44.1173,25.4654],[44.1745,25.4718],[44.2451,25.4881],[44.2977,25.5048],[44.3974,25.5419],[44.4397,25.6028],[44.4766,25.6101],[44.5293,25.5908],[44.5691,25.5687],[44.6942,25.5081],[44.7168,25.5058],[44.749,25.559],[44.768,25.6202],[44.7893,25.6724],[44.7942,25.7003],[44.7278,25.7495],[44.6585,25.7829],[44.6276,25.8192],[44.5958,25.8759],[44.5602,25.9553],[44.5464,26.0012],[44.5063,26.0685],[44.4912,26.1759],[44.4789,26.2286],[44.463,26.2704],[44.4287,26.4054],[44.4066,26.5484],[44.3915,26.6139],[44.3915,26.6904],[44.3882,26.7217],[44.3942,26.7863],[44.406,26.8555],[44.4105,26.9367],[44.4276,26.9825],[44.462,27.0015],[44.5326,27.0174],[44.5614,27.0173],[44.5994,27.031],[44.6384,27.0317],[44.6842,27.0444],[44.7075,27.0447],[44.7365,27.0312],[44.8093,26.9883],[44.8489,26.9698],[44.8822,26.9327],[44.9025,26.9405],[44.877,27.0312],[44.8816,27.1414],[44.8916,27.2238],[44.8752,27.2982],[44.8438,27.3452],[44.8153,27.401],[44.774,27.4533],[44.7437,27.502],[44.7208,27.5252],[44.6775,27.5602],[44.6547,27.5999],[44.5963,27.6578],[44.5498,27.7336],[44.5043,27.7775],[44.4784,27.7961],[44.4258,27.8225],[44.3902,27.8515],[44.3287,27.8815],[44.2836,27.9224],[44.2286,27.9502],[44.1641,27.9682],[44.083,27.9653],[44.0281,27.9274],[43.9913,27.8954],[43.964,27.9026],[43.9608,27.9344],[43.923,27.9456],[43.9109,27.9699],[43.9231,27.9918],[43.9377,28.0452],[43.9403,28.0781],[43.9276,28.1095]]]},"properties":{"code":"SA-05","name_ar":"منطقة القصيم","name_en":"Al-Qassim Region"}},
{"type":"Feature","geometry":{"type":"Polygon","coordinates":[[[42.0319,20.6247],[42.0147,20.6469],[41.9744,20.6775],[41.953,20.6853],[41.9103,20.6775],[41.8614,20.6533],[41.8164,20.6236],[41.7742,20.6083],[41.6769,20.6153],[41.6533,20.6139],[41.6064,20.6008],[41.5414,20.5692],[41.5194,20.5656],[41.4783,20.5853],[41.4522,20.6264],[41.4267,20.7086],[41.4119,20.7297],[41.3706,20.7594],[41.3294,20.7661],[41.2844,20.7564],[41.245,20.7178],[41.2269,20.6792],[41.2247,20.66],[41.2358,20.595],[41.2569,20.5358],[41.2533,20.4714],[41.1753,20.3447],[41.1483,20.2658],[41.1356,20.2472],[41.1133,20.2372],[41.0222,20.2206],[40.9572,20.2144],[40.9111,20.1964],[40.795,20.0842],[40.8,20.0453],[40.8194,20.0261],[40.9044,20.0053],[40.9256,19.9961],[40.9439,19.9758],[40.9592,19.9328],[40.9558,19.8686],[40.9447,19.8092],[40.9511,19.7658],[40.9692,19.7225],[40.9711,19.7022],[40.9639,19.6408],[40.9633,19.5803],[40.9778,19.5567],[41.0011,19.5381],[41.0855,19.4969],[41.1264,19.4572],[41.1514,19.4156],[41.19,19.3769],[41.2447,19.3622],[41.2889,19.3664],[41.3306,19.3797],[41.3531,19.3961],[41.37,19.4358],[41.3794,19.4969],[41.3919,19.545],[41.4278,19.6433],[41.4569,19.7064],[41.4975,19.7658],[41.52,19.7794],[41.5417,19.7819],[41.6333,19.7789],[41.6756,19.7831],[41.6985,19.7969],[41.7319,19.8731],[41.7631,19.9339],[41.8133,20.0158],[41.8222,20.0356],[41.813,20.1108],[41.8225,20.1517],[41.84,20.1819],[41.8639,20.2],[41.935,20.2422],[42.0089,20.2906],[42.0308,20.3106],[42.0414,20.3522],[42.0358,20.3739],[42.0175,20.3953],[41.9764,20.4278],[41.9697,20.4494],[41.9761,20.4894],[42.0211,20.5911],[42.0319,20.6247]]]},"properties":{"code":"SA-11","name_ar":"منطقة الباحة","name_en":"Al Bahah Region"}},
{"type":"Feature","geometry":{"type":"MultiPolygon","coordinates":[[[[41.567,16.8793],[41.5686,16.8549],[41.5839,16.8291],[41.6104,16.8129],[41.602,16.85],[41.577,16.8823],[41.567,16.8793]]],[[[41.7878,16.9855],[41.7961,16.954],[41.8114,16.962],[41.8079,16.9815],[41.7878,16.9855]]],[[[42.0356,16.5497],[42.0451,16.5249],[42.0623,16.529],[42.0711,16.5567],[42.0446,16.5647],[42.0356,16.5497]]],[[[41.7218,16.7287],[41.7603,16.6971],[41.8055,16.6931],[41.8123,16.7007],[41.7935,16.7278],[41.7426,16.7383],[41.7218,16.7287]]],[[[41.9973,16.6225],[42.02,16.6191],[42.0433,16.6392],[42.0333,16.6554],[42.0107,16.6517],[41.9973,16.6225]]],[[[41.7549,16.8898],[41.7885,16.8402],[41.7756,16.8054],[41.8092,16.8091],[41.8287,16.7909],[41.8393,16.7548],[41.8887,16.7161],[41.9082,16.7153],[41.9333,16.6857],[41.9763,16.6674],[41.9859,16.6839],[42.0206,16.6861],[42.0586,16.6953],[42.1089,16.6817],[42.1156,16.6613],[42.088,16.6272],[42.12,16.6229],[42.1406,16.6099],[42.1593,16.5815],[42.1897,16.5864],[42.1808,16.6202],[42.1821,16.6514],[42.1928,16.7051],[42.1805,16.7224],[42.1603,16.7174],[42.138,16.7455],[42.1241,16.745],[42.0959,16.7894],[42.0932,16.81],[42.0694,16.8122],[42.0478,16.7918],[42.0478,16.7661],[42.0361,16.7523],[42.0428,16.7326],[42.0004,16.7475],[41.9714,16.7362],[41.9368,16.7502],[41.9109,16.7477],[41.8807,16.7665],[41.8654,16.7945],[41.8675,16.8188],[41.825,16.8621],[41.7917,16.8701],[41.7763,16.8886],[41.7549,16.8898]]],[[[41.8369,16.8991],[41.8441,16.8814],[41.8818,16.8357],[41.8873,16.8188],[41.9108,16.8006],[41.9399,16.7883],[41.9849,16.7829],[41.9984,16.7515],[42.0111,16.7617],[41.9729,16.8124],[41.9407,16.8205],[41.924,16.8474],[41.9484,16.8564],[41.985,16.8563],[41.9762,16.8747],[41.9528,16.8808],[41.9331,16.9113],[41.9471,16.9327],[41.9303,16.954],[41.8875,16.9194],[41.8435,16.9154],[41.8369,16.8991]]],[[[41.6511,16.9193],[41.6835,16.8914],[41.7273,16.9316],[41.6896,16.9602],[41.677,16.9596],[41.6511,16.9193]]],[[[41.7706,18.3139],[41.7556,18.2753],[41.7233,18.2383],[41.6389,18.1997],[41.6225,18.1814],[41.5856,18.0952],[41.6139,18.0637],[41.6418,18.0542],[41.6465,18.0374],[41.6341,18.0157],[41.6516,17.9933],[41.6907,17.9598],[41.6965,17.9402],[41.718,17.9113],[41.7781,17.8618],[41.7804,17.8368],[41.8059,17.8359],[41.8354,17.8104],[41.8782,17.8022],[41.8982,17.7751],[41.9262,17.7637],[42.011,17.6946],[42.0381,17.6873],[42.0539,17.6596],[42.0785,17.6555],[42.1146,17.6258],[42.1377,17.5999],[42.1361,17.5726],[42.184,17.5558],[42.2077,17.5296],[42.2294,17.518],[42.2686,17.4669],[42.316,17.4397],[42.3249,17.3959],[42.3112,17.3362],[42.3271,17.3367],[42.3375,17.2841],[42.3342,17.2426],[42.3379,17.2084],[42.361,17.1474],[42.3649,17.1261],[42.3687,17.0314],[42.3801,17.0246],[42.3692,17.1017],[42.3889,17.1228],[42.3591,17.1755],[42.3664,17.1829],[42.4174,17.1587],[42.4151,17.1051],[42.4472,17.0734],[42.4579,17.0516],[42.5261,17.0325],[42.5559,17.0026],[42.5428,16.9874],[42.5382,16.9516],[42.5471,16.9271],[42.5339,16.8844],[42.5606,16.872],[42.5725,16.8424],[42.6325,16.8227],[42.6516,16.7962],[42.6751,16.7852],[42.6863,16.7396],[42.7044,16.7198],[42.7177,16.6746],[42.7351,16.6763],[42.7233,16.6107],[42.7132,16.5833],[42.7263,16.5507],[42.7373,16.5019],[42.7556,16.4964],[42.7768,16.4526],[42.7607,16.4277],[42.7731,16.4031],[42.8028,16.4022],[42.8305,16.3796],[42.9232,16.3949],[42.9382,16.4086],[42.9462,16.4342],[42.9376,16.451],[42.9447,16.4899],[42.9903,16.5217],[43.1156,16.5318],[43.1283,16.5912],[43.1344,16.5964],[43.1449,16.6782],[43.1845,16.658],[43.2337,16.6506],[43.232,16.6843],[43.2106,16.7107],[43.2417,16.743],[43.2611,16.7543],[43.2484,16.7752],[43.2566,16.7907],[43.2324,16.8068],[43.2213,16.8381],[43.2023,16.8497],[43.18,16.8491],[43.176,16.8669],[43.1516,16.8801],[43.1381,16.9176],[43.1947,16.9445],[43.1781,16.9633],[43.1795,17.0302],[43.2027,17.0101],[43.2309,17.0295],[43.2397,17.0474],[43.2272,17.0754],[43.2081,17.0783],[43.1853,17.0986],[43.1602,17.087],[43.158,17.1141],[43.1779,17.1307],[43.1708,17.1727],[43.2163,17.2104],[43.1999,17.2428],[43.2041,17.2602],[43.2559,17.2785],[43.2672,17.2922],[43.3024,17.2932],[43.3365,17.304],[43.326,17.3284],[43.2768,17.3582],[43.2588,17.3623],[43.228,17.3855],[43.2471,17.4015],[43.2255,17.4262],[43.2565,17.4578],[43.2408,17.4805],[43.2604,17.4899],[43.2854,17.5173],[43.3209,17.5327],[43.2292,17.6447],[43.2083,17.6517],[43.1436,17.6614],[43.1236,17.6772],[43.0986,17.7183],[43.0814,17.7625],[43.0469,17.8061],[43.0258,17.8192],[42.9617,17.8417],[42.9425,17.8567],[42.9361,17.8764],[42.9464,17.9794],[42.938,18],[42.9175,18.0106],[42.8969,18.0064],[42.8533,17.9861],[42.7875,17.9442],[42.77,17.9261],[42.735,17.8678],[42.7144,17.8039],[42.6867,17.68],[42.6703,17.6617],[42.6497,17.6567],[42.6086,17.6636],[42.5853,17.6753],[42.5489,17.7186],[42.4911,17.7633],[42.4753,17.7836],[42.445,17.8669],[42.4078,17.9014],[42.3667,17.9075],[42.2767,17.9025],[42.2094,17.9064],[42.1675,17.9125],[42.1464,17.9303],[42.1361,17.9519],[42.1217,18.0106],[42.1094,18.0325],[42.0903,18.0481],[42.0278,18.0544],[41.9422,18.0419],[41.9208,18.055],[41.9125,18.0767],[41.9194,18.1578],[41.94,18.2575],[41.9367,18.2983],[41.9197,18.3183],[41.8797,18.3281],[41.7922,18.3208],[41.7706,18.3139]]]]},"properties":{"code":"SA-09","name_ar":"منطقة جازان","name_en":"Jazan Region"}},
{"type":"Feature","geometry":{"type":"Polygon","coordinates":[[[37.9655,31.7459],[37.6787,31.6721],[37.64,31.6635],[37.402,31.6012],[37.0009,31.5001],[37.2643,31.2411],[37.5321,30.9748],[37.5723,30.9385],[37.745,30.7674],[37.7899,30.7131],[37.9971,30.5007],[37.6656,30.3326],[37.6364,30.2767],[37.5208,30.0425],[37.5016,29.9998],[37.5784,29.9173],[37.6671,29.8531],[37.8118,29.7746],[37.8616,29.737],[37.9126,29.7084],[37.9216,29.6973],[37.9958,29.6638],[38.1018,29.6244],[38.2052,29.6061],[38.3974,29.5053],[38.3919,29.4719],[38.3567,29.4454],[38.3205,29.4105],[38.2689,29.3491],[38.2043,29.225],[38.2098,29.201],[38.238,29.1782],[38.2871,29.186],[38.3383,29.2039],[38.4032,29.2325],[38.488,29.2535],[38.5395,29.2514],[38.6052,29.225],[38.6686,29.1812],[38.7292,29.1469],[38.7955,29.1015],[38.8719,29.0714],[38.898,29.0525],[38.9668,29.015],[38.9982,28.9926],[39.0396,28.9508],[39.1574,28.8536],[39.239,28.806],[39.2943,28.7634],[39.3983,28.7108],[39.482,28.6884],[39.6341,28.6419],[39.6638,28.6264],[39.7183,28.6159],[39.7509,28.5993],[39.7803,28.5738],[39.7912,28.5448],[39.8065,28.5514],[39.8913,28.608],[39.9505,28.6336],[40.0361,28.6538],[40.1545,28.7011],[40.1764,28.7201],[40.2643,28.7519],[40.321,28.7835],[40.4246,28.8155],[40.5379,28.8867],[40.6118,28.8864],[40.6706,28.8927],[40.7121,28.8767],[40.7757,28.8776],[40.8311,28.8913],[40.8886,28.8837],[40.984,28.8781],[41.0103,28.8799],[41.0434,28.8726],[41.1194,28.8746],[41.2031,28.8707],[41.2541,28.8809],[41.3238,28.8708],[41.3488,28.8729],[41.3519,28.9378],[41.3615,28.977],[41.3903,29.0457],[41.4059,29.0918],[41.4328,29.118],[41.4761,29.1331],[41.5306,29.1358],[41.5719,29.1271],[41.6032,29.1336],[41.6075,29.1543],[41.5777,29.2581],[41.5919,29.3116],[41.5684,29.3248],[41.5513,29.3481],[41.5364,29.4027],[41.5049,29.4437],[41.5033,29.5093],[41.5117,29.5499],[41.5035,29.559],[41.4627,29.5566],[41.4519,29.5328],[41.4218,29.5309],[41.4108,29.6405],[41.4115,29.7164],[41.4189,29.7553],[41.3949,29.7909],[41.4019,29.8043],[41.4543,29.8195],[41.5035,29.818],[41.5213,29.8536],[41.5494,29.8685],[41.5587,29.8997],[41.5801,29.9151],[41.6178,29.9228],[41.6546,29.9136],[41.7132,29.9264],[41.7492,29.9095],[41.7634,29.923],[41.7696,30.0042],[41.7901,30.0239],[41.8186,30.039],[41.9046,30.0508],[41.9565,30.0653],[41.9757,30.0797],[41.9697,30.1061],[41.8953,30.1624],[41.864,30.1811],[41.8232,30.2198],[41.8069,30.2488],[41.7845,30.2644],[41.7617,30.3022],[41.7425,30.3221],[41.6964,30.3375],[41.6476,30.3377],[41.5948,30.3502],[41.5693,30.3728],[41.5595,30.4307],[41.6214,30.4806],[41.6378,30.503],[41.6327,30.5207],[41.565,30.5289],[41.5419,30.5448],[41.4639,30.5545],[41.4286,30.5869],[41.4036,30.584],[41.3611,30.5689],[41.2179,30.5833],[41.1802,30.5679],[41.1458,30.5115],[41.1134,30.5101],[41.1007,30.5362],[41.1014,30.572],[41.1172,30.6016],[41.1223,30.6578],[41.1182,30.6816],[41.0966,30.707],[41.1007,30.7301],[41.061,30.7498],[41.0111,30.7615],[40.9251,30.7714],[40.8612,30.7673],[40.7778,30.7469],[40.6897,30.7373],[40.6366,30.744],[40.4987,30.7697],[40.4795,30.7822],[40.4353,30.781],[40.4002,30.7993],[40.3618,30.8017],[40.313,30.825],[40.2801,30.8247],[40.2578,30.8125],[40.2403,30.7892],[40.2218,30.7808],[40.1992,30.7471],[40.135,30.7342],[40.0846,30.7358],[40.0387,30.7743],[39.9786,30.8009],[39.937,30.8456],[39.8969,30.8533],[39.8686,30.8896],[39.8489,30.8855],[39.79,30.8598],[39.7547,30.8545],[39.6927,30.8821],[39.6497,30.9148],[39.6108,30.9054],[39.5841,30.9191],[39.5618,30.9107],[39.501,30.9179],[39.4141,30.8915],[39.3852,30.9018],[39.347,30.9318],[39.3139,30.9511],[39.2092,30.9693],[39.1169,30.9708],[38.98,30.9674],[38.9384,30.9561],[38.869,30.9076],[38.8116,30.9045],[38.7917,30.8821],[38.7597,30.8901],[38.7463,30.9242],[38.7235,30.9323],[38.6761,30.9234],[38.6274,30.9323],[38.5433,30.9321],[38.5118,30.9162],[38.4669,30.9078],[38.3326,30.9054],[38.2702,30.8877],[38.2515,30.867],[38.2075,30.8656],[38.178,30.8713],[38.1626,30.915],[38.1635,30.9434],[38.1789,31.0015],[38.1527,31.0483],[38.1609,31.0769],[38.1275,31.1146],[38.0975,31.0972],[38.0754,31.1041],[38.0756,31.1306],[38.097,31.1512],[38.0831,31.1721],[38.0562,31.1464],[38.041,31.1558],[38.0125,31.1959],[37.9916,31.2055],[37.968,31.2005],[37.9462,31.2072],[37.9147,31.1969],[37.8892,31.2211],[37.9099,31.2353],[37.9171,31.2634],[37.9358,31.2831],[37.9358,31.3434],[37.9606,31.3672],[37.962,31.3895],[37.9418,31.4522],[37.9635,31.4697],[37.9411,31.5216],[37.9558,31.5905],[37.937,31.6239],[37.9409,31.66],[37.956,31.6717],[37.961,31.6943],[37.9486,31.7189],[37.9655,31.7459]]]},"properties":{"code":"SA-12","name_ar":"منطقة الجوف","name_en":"Al Jawf Region"}}
]}