{"type":"FeatureCollection", "features": [
{"type":"Feature","geometry":{"type":"MultiPolygon","coordinates":[[[[53.086,16.648],[52.801,17.268],[52.729,17.3],[52.465,17.897],[51.978,18.996],[51.258,18.899],[50.355,18.778],[49.192,18.621],[49.042,18.582],[48.172,18.157],[47.58,17.448],[47.442,17.112],[47.144,16.947],[46.976,16.953],[46.779,17.212],[46.682,17.269],[46.31,17.231],[45.407,17.32],[45.148,17.427],[44.747,17.432],[44.546,17.404],[44.156,17.399],[43.917,17.325],[43.713,17.366],[43.597,17.471],[43.418,17.516],[43.191,17.359],[43.237,17.266],[43.156,17.205],[43.117,16.942],[43.184,16.812],[43.165,16.689],[43.034,16.55],[42.799,16.372],[42.84,16.032],[42.717,15.655],[42.8,15.372],[42.698,15.326],[42.658,15.233],[42.856,15.133],[42.936,14.939],[42.913,14.863],[43.021,14.555],[43.006,14.483],[43.093,14.204],[43.089,14.011],[43.234,13.859],[43.283,13.64],[43.232,13.267],[43.475,12.839],[43.488,12.699],[43.634,12.744],[43.93,12.617],[44.358,12.669],[44.618,12.817],[44.755,12.764],[45.039,12.816],[45.164,12.998],[45.394,13.067],[45.657,13.339],[45.92,13.394],[46.203,13.424],[46.502,13.416],[46.789,13.466],[46.976,13.547],[47.408,13.662],[47.633,13.858],[47.855,13.957],[47.99,14.048],[48.278,13.998],[48.668,14.05],[48.78,14.124],[49.005,14.355],[49.048,14.456],[49.35,14.638],[49.549,14.722],[49.906,14.828],[50.167,14.851],[50.527,15.038],[51.015,15.141],[51.322,15.226],[51.604,15.337],[52.217,15.656],[52.174,15.957],[52.237,16.171],[52.328,16.294],[52.581,16.47],[53.086,16.648]]],[[[53.763,12.637],[53.638,12.707],[53.431,12.664],[53.316,12.533],[53.598,12.342],[53.719,12.319],[54.129,12.361],[54.511,12.553],[54.187,12.664],[53.763,12.637]]]]},"properties":{"name_ar":"اليمن","iso":"YEM"}},
{"type":"Feature","geometry":{"type":"Polygon","coordinates":[[[66,38.234],[66,40],[62.466,40],[62.651,39.858],[63.506,39.377],[63.721,39.188],[64.163,38.954],[64.31,38.977],[64.66,38.736],[65.077,38.539],[65.613,38.239],[65.857,38.269],[66,38.234]]]},"properties":{"name_ar":"أوزبكستان","iso":"UZB"}},
{"type":"Feature","geometry":{"type":"Polygon","coordinates":[[[56.298,25.651],[56.145,25.691],[56.167,26.047],[56.08,26.063],[55.941,25.794],[55.523,25.498],[55.322,25.3],[55.304,25.237],[55.098,25.042],[54.747,24.81],[54.535,24.531],[54.397,24.278],[53.893,24.077],[53.33,24.098],[53.026,24.147],[52.648,24.155],[52.251,23.995],[52.119,23.971],[51.906,23.985],[51.792,24.075],[51.768,24.254],[51.568,24.286],[51.593,24.079],[51.904,23.708],[52.555,22.933],[53.832,22.777],[55.104,22.621],[55.186,22.704],[55.2,23.035],[55.508,23.725],[55.532,23.819],[55.468,23.941],[55.548,23.991],[55.985,24.063],[55.929,24.215],[55.761,24.243],[55.806,24.35],[55.768,24.491],[55.804,24.636],[55.796,24.868],[55.916,24.972],[56.064,24.739],[56.268,24.867],[56.388,24.979],[56.373,25.018],[56.363,25.569],[56.298,25.651]]]},"properties":{"name_ar":"الإمارات العربية المتحدة","iso":"ARE"}},
{"type":"Feature","geometry":{"type":"Polygon","coordinates":[[[62.466,40],[52.84,40],[53.404,39.96],[53.487,39.909],[53.472,39.669],[53.603,39.547],[53.39,39.536],[53.236,39.609],[53.125,39.432],[53.203,39.317],[53.336,39.341],[53.618,39.216],[53.869,38.949],[53.885,38.864],[53.84,38.515],[53.854,38.286],[53.824,37.928],[53.848,37.67],[53.914,37.344],[54.192,37.332],[54.745,37.502],[54.849,37.723],[55.076,37.902],[55.381,38.051],[55.578,38.1],[56.229,38.073],[56.441,38.249],[56.775,38.25],[56.907,38.213],[57.194,38.216],[57.424,37.948],[57.711,37.905],[58.109,37.783],[58.262,37.666],[58.436,37.639],[58.815,37.683],[59.241,37.521],[59.345,37.445],[59.367,37.334],[59.562,37.179],[59.949,37.042],[60.063,36.963],[60.341,36.638],[61.12,36.643],[61.212,36.099],[61.153,35.977],[61.252,35.868],[61.262,35.62],[61.345,35.629],[61.543,35.458],[61.72,35.419],[61.984,35.444],[62.253,35.25],[62.308,35.171],[62.463,35.251],[62.611,35.233],[63.057,35.446],[63.17,35.678],[63.109,35.819],[63.302,35.858],[63.863,36.012],[64.01,36.012],[64.092,36.113],[64.358,36.226],[64.511,36.341],[64.816,37.132],[65.09,37.238],[65.555,37.251],[65.641,37.468],[65.765,37.569],[66,37.463],[66,38.234],[65.857,38.269],[65.613,38.239],[65.077,38.539],[64.66,38.736],[64.31,38.977],[64.163,38.954],[63.721,39.188],[63.506,39.377],[62.651,39.858],[62.466,40]]]},"properties":{"name_ar":"تركمانستان","iso":"TKM"}},
{"type":"Feature","geometry":{"type":"Polygon","coordinates":[[[44.389,40],[26.219,40],[26.15,39.873],[26.155,39.657],[26.113,39.467],[26.827,39.563],[26.911,39.517],[26.682,39.292],[26.854,39.116],[26.815,38.961],[27.014,38.887],[26.909,38.776],[26.764,38.71],[26.907,38.482],[26.861,38.373],[26.595,38.419],[26.587,38.557],[26.514,38.629],[26.378,38.624],[26.43,38.441],[26.291,38.277],[26.582,38.149],[26.683,38.198],[26.944,38.063],[27.232,37.979],[27.224,37.725],[27.078,37.688],[27.204,37.491],[27.219,37.389],[27.52,37.249],[27.535,37.164],[27.25,37.079],[27.349,37.02],[27.668,37.007],[28.134,37.029],[28.224,36.996],[27.934,36.809],[27.631,36.787],[27.656,36.675],[27.804,36.736],[28.084,36.751],[28.196,36.686],[28.304,36.812],[28.484,36.804],[28.718,36.701],[29.038,36.693],[29.143,36.397],[29.348,36.259],[29.689,36.157],[30.083,36.249],[30.232,36.307],[30.387,36.243],[30.484,36.31],[30.558,36.526],[30.582,36.797],[30.644,36.866],[31.353,36.801],[31.778,36.613],[32.022,36.535],[32.378,36.184],[32.534,36.101],[32.795,36.036],[32.929,36.096],[33.1,36.103],[33.695,36.182],[34.023,36.341],[34.3,36.604],[34.601,36.784],[34.811,36.799],[35.176,36.635],[35.393,36.575],[35.537,36.597],[35.661,36.724],[36.049,36.911],[36.18,36.807],[36.188,36.659],[35.883,36.406],[35.811,36.31],[35.957,35.998],[35.893,35.917],[36.127,35.831],[36.202,35.938],[36.348,36.004],[36.375,36.171],[36.641,36.264],[36.538,36.457],[36.597,36.701],[36.659,36.803],[36.942,36.758],[37.066,36.653],[37.436,36.643],[38.192,36.902],[38.444,36.862],[38.767,36.693],[39.357,36.682],[39.687,36.739],[40.016,36.826],[40.706,37.098],[40.959,37.109],[41.265,37.069],[41.516,37.089],[42.06,37.206],[42.168,37.289],[42.269,37.277],[42.359,37.109],[42.456,37.129],[42.775,37.372],[42.937,37.325],[43.092,37.367],[43.516,37.245],[43.836,37.224],[44.013,37.314],[44.114,37.302],[44.208,37.203],[44.202,37.052],[44.282,36.978],[44.606,37.176],[44.765,37.142],[44.794,37.29],[44.574,37.435],[44.561,37.745],[44.211,37.908],[44.329,38.109],[44.431,38.357],[44.291,38.42],[44.257,38.701],[44.272,38.836],[44.145,38.994],[44.178,39.145],[44.079,39.218],[44.023,39.377],[44.389,39.422],[44.456,39.667],[44.587,39.769],[44.817,39.65],[44.768,39.704],[44.389,40]]]},"properties":{"name_ar":"تركيا","iso":"TUR"}},
{"type":"Feature","geometry":{"type":"Polygon","coordinates":[[[35.893,35.917],[35.84,35.849],[35.764,35.572],[35.902,35.421],[35.943,35.224],[35.89,35.06],[35.899,34.852],[35.976,34.629],[36.433,34.613],[36.326,34.513],[36.504,34.432],[36.585,34.221],[36.458,34.057],[36.355,34.011],[36.282,33.894],[36.092,33.832],[35.942,33.668],[36.022,33.563],[35.869,33.432],[35.816,33.362],[35.785,33.291],[35.888,32.944],[35.787,32.735],[35.895,32.714],[36.059,32.534],[36.22,32.495],[36.372,32.387],[36.818,32.317],[38.056,32.995],[38.774,33.372],[39.564,33.768],[40.689,34.332],[40.987,34.429],[41.195,34.769],[41.216,35.288],[41.248,35.427],[41.354,35.64],[41.353,35.81],[41.246,36.073],[41.296,36.383],[41.417,36.515],[41.789,36.597],[42.084,36.826],[42.35,37.061],[42.359,37.109],[42.269,37.277],[42.168,37.289],[42.06,37.206],[41.516,37.089],[41.265,37.069],[40.959,37.109],[40.706,37.098],[40.016,36.826],[39.687,36.739],[39.357,36.682],[38.767,36.693],[38.444,36.862],[38.192,36.902],[37.436,36.643],[37.066,36.653],[36.942,36.758],[36.659,36.803],[36.597,36.701],[36.538,36.457],[36.641,36.264],[36.375,36.171],[36.348,36.004],[36.202,35.938],[36.127,35.831],[35.893,35.917]]]},"properties":{"name_ar":"سوريا","iso":"SYR"}},
{"type":"Feature","geometry":{"type":"Polygon","coordinates":[[[27.468,5],[34.767,5],[35.268,5.492],[35.082,5.673],[34.984,5.858],[34.959,6.045],[34.838,6.3],[34.711,6.66],[34.563,6.78],[34.484,6.898],[34.279,7.003],[34.064,7.226],[34.02,7.368],[33.902,7.51],[33.666,7.671],[33.226,7.761],[33.015,7.869],[33.013,7.952],[33.234,8.396],[33.409,8.448],[33.785,8.431],[33.953,8.444],[34.095,8.582],[34.102,8.752],[34.078,9.462],[33.891,9.462],[33.895,9.718],[33.959,9.845],[33.957,10.054],[33.892,10.199],[33.459,10.551],[33.361,10.658],[33.141,10.738],[33.172,10.85],[33.073,11.592],[33.122,11.693],[33.135,11.942],[33.199,12.217],[32.722,12.223],[32.737,12.01],[32.072,12.007],[32.335,11.716],[32.354,11.247],[32.404,11.058],[31.933,10.663],[31.854,10.479],[31.655,10.221],[31.225,9.799],[31.154,9.771],[30.739,9.743],[30.475,9.979],[30.003,10.277],[29.605,10.065],[29.604,9.921],[29.473,9.769],[29.242,9.718],[29,9.61],[28.839,9.459],[28.845,9.326],[28.049,9.329],[27.886,9.6],[27.8,9.588],[27.074,9.614],[26.763,9.499],[26.551,9.526],[26.17,9.966],[25.892,10.203],[25.885,10.346],[25.798,10.421],[25.285,10.319],[25.067,10.294],[25.003,10.055],[24.785,9.775],[24.783,9.527],[24.663,9.338],[24.648,9.179],[24.549,9.007],[24.532,8.887],[24.214,8.768],[24.147,8.666],[24.221,8.608],[24.18,8.461],[24.291,8.291],[24.456,8.239],[24.737,8.192],[24.853,8.138],[25.007,7.965],[25.2,7.808],[25.247,7.725],[25.19,7.519],[25.381,7.333],[25.889,7.065],[26.037,6.955],[26.169,6.782],[26.362,6.635],[26.309,6.455],[26.514,6.069],[26.726,5.998],[27.083,5.777],[27.213,5.619],[27.257,5.29],[27.403,5.109],[27.468,5]]]},"properties":{"name_ar":"جنوب السودان","iso":"SDS"}},
{"type":"Feature","geometry":{"type":"Polygon","coordinates":[[[34.078,9.462],[34.12,9.73],[34.185,9.919],[34.292,10.125],[34.315,10.252],[34.276,10.528],[34.431,10.788],[34.572,10.88],[34.771,10.746],[34.931,10.865],[34.969,11.162],[34.961,11.277],[35.112,11.817],[35.252,11.957],[35.596,12.537],[35.67,12.624],[35.821,12.685],[36.108,12.726],[36.16,13.093],[36.212,13.271],[36.391,13.626],[36.447,13.842],[36.444,13.988],[36.524,14.257],[36.427,15.132],[36.522,15.25],[36.679,15.726],[36.813,15.994],[36.914,16.296],[36.888,16.625],[36.979,16.801],[37.009,17.059],[37.17,17.041],[37.411,17.062],[37.51,17.288],[37.782,17.458],[38.025,17.538],[38.254,17.585],[38.422,17.824],[38.609,18.005],[38.574,18.073],[38.333,18.219],[38.202,18.249],[37.922,18.556],[37.73,18.694],[37.599,18.717],[37.471,18.82],[37.362,19.092],[37.248,19.582],[37.263,19.792],[37.193,20.121],[37.188,20.395],[37.228,20.557],[37.173,20.732],[37.151,21.104],[37.212,21.186],[37.081,21.326],[36.927,21.587],[36.883,21.769],[36.871,21.997],[35.887,21.997],[34.575,21.996],[33.918,21.996],[32.606,21.996],[31.434,21.996],[31.486,22.148],[31.358,22.189],[31.261,22.002],[30.329,21.995],[29.565,21.995],[28.801,21.995],[28.036,21.995],[27.272,21.996],[26.126,21.996],[24.98,21.996],[24.98,20.999],[24.979,20.003],[24,19.996],[24,8.698],[24.147,8.666],[24.214,8.768],[24.532,8.887],[24.549,9.007],[24.648,9.179],[24.663,9.338],[24.783,9.527],[24.785,9.775],[25.003,10.055],[25.067,10.294],[25.285,10.319],[25.798,10.421],[25.885,10.346],[25.892,10.203],[26.17,9.966],[26.551,9.526],[26.763,9.499],[27.074,9.614],[27.8,9.588],[27.886,9.6],[28.049,9.329],[28.845,9.326],[28.839,9.459],[29,9.61],[29.242,9.718],[29.473,9.769],[29.604,9.921],[29.605,10.065],[30.003,10.277],[30.475,9.979],[30.739,9.743],[31.154,9.771],[31.225,9.799],[31.655,10.221],[31.854,10.479],[31.933,10.663],[32.404,11.058],[32.354,11.247],[32.335,11.716],[32.072,12.007],[32.737,12.01],[32.722,12.223],[33.199,12.217],[33.135,11.942],[33.122,11.693],[33.073,11.592],[33.172,10.85],[33.141,10.738],[33.361,10.658],[33.459,10.551],[33.892,10.199],[33.957,10.054],[33.959,9.845],[33.895,9.718],[33.891,9.462],[34.078,9.462]]]},"properties":{"name_ar":"السودان","iso":"SDN"}},
{"type":"Feature","geometry":{"type":"Polygon","coordinates":[[[45.021,5],[48.27,5],[48.649,5.494],[49.049,6.174],[49.093,6.408],[49.235,6.777],[49.349,6.991],[49.57,7.297],[49.761,7.66],[49.852,7.963],[50.103,8.2],[50.286,8.509],[50.43,8.845],[50.638,9.109],[50.685,9.241],[50.825,9.428],[50.833,9.71],[50.874,9.924],[50.898,10.253],[50.93,10.336],[51.063,10.434],[51.141,10.657],[51.122,11.077],[51.084,11.336],[51.218,11.658],[51.255,11.831],[50.792,11.984],[50.636,11.944],[50.466,11.728],[50.11,11.529],[49.642,11.451],[49.388,11.343],[48.939,11.258],[48.938,10.714],[48.938,9.452],[48.617,8.965],[47.978,7.997],[46.971,7.026],[46.423,6.497],[45.935,5.997],[45.021,5]]]},"properties":{"name_ar":"الصومال","iso":"SOM"}},
{"type":"Feature","geometry":{"type":"Polygon","coordinates":[[[48.939,11.258],[48.674,11.323],[48.439,11.29],[48.019,11.139],[47.713,11.112],[47.405,11.174],[47.23,11.1],[46.973,10.925],[46.565,10.746],[46.46,10.734],[46.254,10.781],[46.025,10.794],[45.817,10.836],[45.696,10.804],[45.338,10.65],[44.943,10.437],[44.387,10.43],[44.158,10.551],[43.853,10.784],[43.631,11.035],[43.441,11.346],[43.246,11.5],[42.923,10.999],[42.66,10.621],[42.842,10.203],[43.069,9.926],[43.182,9.88],[43.303,9.609],[43.483,9.379],[43.621,9.337],[44.023,8.986],[44.894,8.7],[45.555,8.483],[46.296,8.235],[46.978,7.997],[47.978,7.997],[48.617,8.965],[48.938,9.452],[48.938,10.714],[48.939,11.258]]]},"properties":{"name_ar":"صوماليلاند","iso":"SOL"}},
{"type":"Feature","geometry":{"type":"Polygon","coordinates":[[[51.268,24.607],[51.428,24.668],[51.587,24.965],[51.602,25.148],[51.485,25.525],[51.572,25.781],[51.543,25.902],[51.389,26.011],[51.262,26.153],[51.108,26.081],[51.003,25.981],[50.869,25.613],[50.763,25.445],[50.777,25.177],[50.847,24.889],[50.804,24.789],[50.966,24.574],[51.093,24.565],[51.268,24.607]]]},"properties":{"name_ar":"قطر","iso":"QAT"}},
{"type":"Feature","geometry":{"type":"Polygon","coordinates":[[[66,25.434],[66,29.789],[65.096,29.559],[64.521,29.565],[64.266,29.507],[64.099,29.392],[63.568,29.498],[62.477,29.408],[62.373,29.425],[61.224,29.749],[60.843,29.859],[61.318,29.373],[61.338,29.265],[61.623,28.792],[61.89,28.547],[62.353,28.415],[62.565,28.235],[62.763,28.202],[62.74,28.002],[62.812,27.497],[62.763,27.25],[62.915,27.218],[63.167,27.252],[63.305,27.125],[63.242,27.078],[63.25,26.879],[63.186,26.838],[63.168,26.666],[63.093,26.632],[62.787,26.644],[62.439,26.561],[62.312,26.491],[62.239,26.357],[61.87,26.242],[61.81,26.165],[61.754,25.843],[61.669,25.769],[61.615,25.286],[61.588,25.202],[61.744,25.138],[62.089,25.155],[62.199,25.225],[62.315,25.135],[62.572,25.255],[62.665,25.265],[63.015,25.225],[63.17,25.255],[63.491,25.211],[63.557,25.353],[63.721,25.386],[63.936,25.343],[64.059,25.403],[64.152,25.333],[64.544,25.237],[64.659,25.184],[64.777,25.307],[65.061,25.311],[65.406,25.374],[65.68,25.355],[66,25.434]]]},"properties":{"name_ar":"باكستان","iso":"PAK"}},
{"type":"Feature","geometry":{"type":"MultiPolygon","coordinates":[[[[53.086,16.648],[53.298,16.723],[53.61,16.76],[53.775,16.856],[53.954,16.918],[54.068,17.006],[54.567,17.031],[54.772,16.965],[55.064,17.039],[55.174,17.158],[55.296,17.382],[55.255,17.586],[55.479,17.843],[55.614,17.886],[55.998,17.935],[56.27,17.951],[56.383,17.988],[56.551,18.166],[56.655,18.587],[56.826,18.754],[57.177,18.903],[57.676,18.958],[57.812,19.017],[57.764,19.253],[57.761,19.432],[57.715,19.607],[57.741,19.804],[57.802,19.955],[57.862,20.244],[58.103,20.57],[58.245,20.599],[58.209,20.424],[58.349,20.387],[58.474,20.407],[58.69,20.807],[58.896,21.113],[59.069,21.289],[59.371,21.499],[59.518,21.782],[59.653,21.951],[59.681,22.054],[59.8,22.22],[59.823,22.509],[59.535,22.579],[59.311,22.793],[59.195,22.972],[59.03,23.131],[58.773,23.517],[58.578,23.643],[58.325,23.624],[58.12,23.717],[57.611,23.804],[57.22,23.923],[56.913,24.15],[56.641,24.47],[56.49,24.716],[56.388,24.979],[56.268,24.867],[56.064,24.739],[55.916,24.972],[55.796,24.868],[55.804,24.636],[55.768,24.491],[55.806,24.35],[55.761,24.243],[55.929,24.215],[55.985,24.063],[55.548,23.991],[55.468,23.941],[55.532,23.819],[55.508,23.725],[55.2,23.035],[55.186,22.704],[55.641,22.002],[55.388,21.236],[54.977,19.996],[53.667,19.559],[52.807,19.272],[51.978,18.996],[52.465,17.897],[52.729,17.3],[52.801,17.268],[53.086,16.648]]],[[[56.298,25.651],[56.374,25.805],[56.43,26.327],[56.306,26.235],[56.164,26.207],[56.08,26.063],[56.167,26.047],[56.145,25.691],[56.298,25.651]]],[[[58.722,20.219],[58.835,20.424],[58.951,20.516],[58.884,20.681],[58.788,20.497],[58.641,20.337],[58.722,20.219]]]]},"properties":{"name_ar":"سلطنة عمان","iso":"OMN"}},
{"type":"Feature","geometry":{"type":"Polygon","coordinates":[[[24,32.062],[24,19.996],[24.979,20.003],[24.98,20.999],[24.98,21.996],[24.98,23.119],[24.98,24.017],[24.98,24.691],[24.98,25.589],[24.98,26.263],[24.98,27.161],[24.98,28.059],[24.98,29.182],[24.916,29.376],[24.804,29.886],[24.712,30.132],[24.726,30.251],[24.878,30.458],[24.974,30.777],[24.878,31.061],[24.853,31.335],[25.15,31.655],[25.025,31.883],[24.879,31.984],[24.684,32.016],[24.48,31.997],[24.13,32.009],[24,32.062]]]},"properties":{"name_ar":"ليبيا","iso":"LBY"}},
{"type":"Feature","geometry":{"type":"Polygon","coordinates":[[[35.976,34.629],[35.978,34.547],[35.804,34.437],[35.648,34.248],[35.612,34.032],[35.511,33.88],[35.336,33.503],[35.251,33.393],[35.109,33.084],[35.411,33.076],[35.493,33.119],[35.533,33.25],[35.734,33.333],[35.841,33.416],[35.869,33.432],[36.022,33.563],[35.942,33.668],[36.092,33.832],[36.282,33.894],[36.355,34.011],[36.458,34.057],[36.585,34.221],[36.504,34.432],[36.326,34.513],[36.433,34.613],[35.976,34.629]]]},"properties":{"name_ar":"لبنان","iso":"LBN"}},
{"type":"Feature","geometry":{"type":"MultiPolygon","coordinates":[[[[48.275,29.624],[48.348,29.783],[48.228,29.936],[48.159,29.96],[48.081,29.799],[48.18,29.611],[48.275,29.624]]],[[[46.531,29.096],[47.433,28.99],[47.521,28.838],[47.583,28.628],[47.671,28.533],[48.442,28.543],[48.339,28.763],[48.184,28.979],[48.051,29.355],[47.845,29.366],[47.725,29.417],[47.97,29.617],[48.136,29.618],[48.006,29.836],[47.979,29.983],[47.673,30.096],[47.331,30.08],[47.114,29.961],[46.906,29.538],[46.769,29.347],[46.531,29.096]]]]},"properties":{"name_ar":"الكويت","iso":"KWT"}},
{"type":"Feature","geometry":{"type":"Polygon","coordinates":[[[34.767,5],[35.764,5],[35.8,5.157],[35.745,5.344],[35.469,5.419],[35.325,5.365],[35.268,5.492],[34.767,5]]]},"properties":{"name_ar":"كينيا","iso":"KEN"}},
{"type":"Feature","geometry":{"type":"Polygon","coordinates":[[[35.787,32.735],[35.573,32.641],[35.551,32.396],[35.572,32.238],[35.531,31.985],[35.559,31.766],[35.451,31.479],[35.401,31.231],[35.439,31.132],[35.174,30.524],[35.142,30.142],[35.068,29.978],[34.973,29.555],[34.951,29.354],[36.015,29.19],[36.068,29.201],[36.476,29.495],[36.704,29.832],[36.755,29.866],[37.469,29.995],[37.634,30.313],[37.98,30.5],[37.479,31.008],[36.959,31.492],[37.774,31.696],[38.962,31.995],[39.145,32.125],[39.293,32.244],[39.247,32.351],[39.041,32.306],[38.982,32.473],[39.058,32.493],[38.774,33.372],[38.056,32.995],[36.818,32.317],[36.372,32.387],[36.22,32.495],[36.059,32.534],[35.895,32.714],[35.787,32.735]]]},"properties":{"name_ar":"الأردن","iso":"JOR"}},
{"type":"Feature","geometry":{"type":"Polygon","coordinates":[[[35.841,33.416],[35.734,33.333],[35.533,33.25],[35.493,33.119],[35.411,33.076],[35.109,33.084],[34.922,32.614],[34.804,32.196],[34.678,31.896],[34.477,31.585],[34.526,31.526],[34.35,31.363],[34.245,31.208],[34.49,30.596],[34.53,30.446],[34.659,30.191],[34.904,29.477],[34.973,29.555],[35.068,29.978],[35.142,30.142],[35.174,30.524],[35.439,31.132],[35.401,31.231],[35.451,31.479],[35.101,31.366],[34.908,31.351],[34.873,31.397],[34.951,31.602],[35.198,31.776],[34.99,31.913],[34.956,32.161],[35.065,32.46],[35.193,32.534],[35.362,32.507],[35.551,32.396],[35.573,32.641],[35.787,32.735],[35.888,32.944],[35.785,33.291],[35.816,33.362],[35.841,33.416]]]},"properties":{"name_ar":"إسرائيل","iso":"ISR"}},
{"type":"Feature","geometry":{"type":"MultiPolygon","coordinates":[[[[35.551,32.396],[35.362,32.507],[35.193,32.534],[35.065,32.46],[34.956,32.161],[34.99,31.913],[35.198,31.776],[34.951,31.602],[34.873,31.397],[34.908,31.351],[35.101,31.366],[35.451,31.479],[35.559,31.766],[35.531,31.985],[35.572,32.238],[35.551,32.396]]],[[[34.477,31.585],[34.198,31.323],[34.245,31.208],[34.35,31.363],[34.526,31.526],[34.477,31.585]]]]},"properties":{"name_ar":"فلسطين","iso":"PSX"}},
{"type":"Feature","geometry":{"type":"Polygon","coordinates":[[[42.359,37.109],[42.35,37.061],[42.084,36.826],[41.789,36.597],[41.417,36.515],[41.296,36.383],[41.246,36.073],[41.353,35.81],[41.354,35.64],[41.248,35.427],[41.216,35.288],[41.195,34.769],[40.987,34.429],[40.689,34.332],[39.564,33.768],[38.774,33.372],[39.058,32.493],[38.982,32.473],[39.041,32.306],[39.247,32.351],[39.293,32.244],[39.145,32.125],[40.369,31.939],[40.808,31.725],[42.074,31.08],[42.858,30.495],[43.441,30.084],[44.1,29.619],[44.691,29.202],[45.499,29.132],[46.356,29.064],[46.531,29.096],[46.769,29.347],[46.906,29.538],[47.114,29.961],[47.331,30.08],[47.673,30.096],[47.979,29.983],[48.142,30.041],[48.355,29.957],[48.546,29.962],[48.435,30.038],[48.331,30.285],[48.148,30.417],[48.015,30.466],[48.011,30.99],[47.679,31.002],[47.679,31.401],[47.83,31.794],[47.592,32.088],[47.512,32.151],[47.371,32.424],[47.285,32.474],[47.121,32.467],[46.57,32.834],[46.377,32.929],[46.113,32.958],[46.081,33.087],[46.146,33.23],[45.981,33.47],[45.873,33.492],[45.879,33.61],[45.738,33.603],[45.473,33.925],[45.397,33.971],[45.529,34.153],[45.527,34.285],[45.438,34.415],[45.501,34.582],[45.638,34.574],[45.678,34.798],[45.921,35.029],[46.134,35.128],[46.112,35.322],[45.971,35.524],[46.037,35.673],[46.263,35.744],[46.167,35.821],[45.723,35.837],[45.645,35.928],[45.484,36.009],[45.362,36.015],[45.241,36.356],[45.112,36.409],[45.031,36.526],[45.034,36.659],[44.881,36.799],[44.765,37.142],[44.606,37.176],[44.282,36.978],[44.202,37.052],[44.208,37.203],[44.114,37.302],[44.013,37.314],[43.836,37.224],[43.516,37.245],[43.092,37.367],[42.937,37.325],[42.775,37.372],[42.456,37.129],[42.359,37.109]]]},"properties":{"name_ar":"العراق","iso":"IRQ"}},
{"type":"Feature","geometry":{"type":"MultiPolygon","coordinates":[[[[53.914,37.344],[54.017,36.952],[53.97,36.818],[53.768,36.93],[53.374,36.869],[52.19,36.622],[51.762,36.615],[51.119,36.743],[50.927,36.81],[50.533,37.014],[50.338,37.149],[50.13,37.407],[49.727,37.481],[49.47,37.497],[49.171,37.601],[49.081,37.668],[48.96,37.89],[48.901,38.144],[48.869,38.435],[48.593,38.411],[48.417,38.586],[48.306,38.613],[48.205,38.724],[48.023,38.819],[48.05,38.935],[48.242,38.979],[48.274,39.099],[48.125,39.172],[48.136,39.312],[48.322,39.399],[47.996,39.684],[47.773,39.649],[47.188,39.341],[46.989,39.18],[46.853,39.148],[46.555,38.904],[46.491,38.907],[46.114,38.878],[45.575,38.973],[45.48,39.006],[45.256,39.195],[45.141,39.254],[44.817,39.65],[44.587,39.769],[44.456,39.667],[44.389,39.422],[44.023,39.377],[44.079,39.218],[44.178,39.145],[44.145,38.994],[44.272,38.836],[44.257,38.701],[44.291,38.42],[44.431,38.357],[44.329,38.109],[44.211,37.908],[44.561,37.745],[44.574,37.435],[44.794,37.29],[44.765,37.142],[44.881,36.799],[45.034,36.659],[45.031,36.526],[45.112,36.409],[45.241,36.356],[45.362,36.015],[45.484,36.009],[45.645,35.928],[45.723,35.837],[46.167,35.821],[46.263,35.744],[46.037,35.673],[45.971,35.524],[46.112,35.322],[46.134,35.128],[45.921,35.029],[45.678,34.798],[45.638,34.574],[45.501,34.582],[45.438,34.415],[45.527,34.285],[45.529,34.153],[45.397,33.971],[45.473,33.925],[45.738,33.603],[45.879,33.61],[45.873,33.492],[45.981,33.47],[46.146,33.23],[46.081,33.087],[46.113,32.958],[46.377,32.929],[46.57,32.834],[47.121,32.467],[47.285,32.474],[47.371,32.424],[47.512,32.151],[47.592,32.088],[47.83,31.794],[47.679,31.401],[47.679,31.002],[48.011,30.99],[48.015,30.466],[48.148,30.417],[48.331,30.285],[48.435,30.038],[48.546,29.962],[48.671,30.028],[48.832,30.035],[48.919,30.121],[48.917,30.397],[49.13,30.509],[49.054,30.307],[49.43,30.13],[49.555,30.029],[49.983,30.209],[50.072,30.199],[50.169,29.921],[50.387,29.679],[50.65,29.42],[50.675,29.147],[50.876,29.063],[50.867,28.87],[51.062,28.726],[51.094,28.512],[51.276,28.219],[51.279,28.131],[51.519,27.91],[51.666,27.845],[52.031,27.824],[52.192,27.717],[52.476,27.617],[52.603,27.493],[52.692,27.323],[52.983,27.142],[53.455,26.943],[53.507,26.852],[53.706,26.726],[53.823,26.708],[54.069,26.732],[54.247,26.697],[54.522,26.589],[54.645,26.509],[54.896,26.557],[55.155,26.725],[55.294,26.786],[55.424,26.771],[55.65,26.978],[55.941,27.038],[56.118,27.143],[56.356,27.2],[56.728,27.128],[56.813,27.09],[56.982,26.905],[57.072,26.68],[57.104,26.371],[57.201,26.159],[57.206,26.037],[57.335,25.792],[57.733,25.725],[57.796,25.653],[57.937,25.692],[58.022,25.641],[58.314,25.581],[58.531,25.592],[58.798,25.555],[59.046,25.417],[59.227,25.428],[59.456,25.481],[59.616,25.403],[60.025,25.384],[60.4,25.312],[60.511,25.437],[60.588,25.414],[60.664,25.282],[61.412,25.102],[61.588,25.202],[61.615,25.286],[61.669,25.769],[61.754,25.843],[61.81,26.165],[61.87,26.242],[62.239,26.357],[62.312,26.491],[62.439,26.561],[62.787,26.644],[63.093,26.632],[63.168,26.666],[63.186,26.838],[63.25,26.879],[63.242,27.078],[63.305,27.125],[63.167,27.252],[62.915,27.218],[62.763,27.25],[62.812,27.497],[62.74,28.002],[62.763,28.202],[62.565,28.235],[62.353,28.415],[61.89,28.547],[61.623,28.792],[61.338,29.265],[61.318,29.373],[60.843,29.859],[61.784,30.832],[61.814,31.073],[61.755,31.285],[61.66,31.382],[60.854,31.483],[60.792,31.661],[60.79,31.987],[60.829,32.249],[60.577,32.995],[60.561,33.138],[60.718,33.324],[60.917,33.505],[60.806,33.559],[60.655,33.56],[60.511,33.639],[60.527,33.842],[60.486,34.095],[60.643,34.307],[60.889,34.319],[60.726,34.518],[60.951,34.654],[61.08,34.856],[61.15,35.094],[61.1,35.272],[61.189,35.312],[61.279,35.514],[61.262,35.62],[61.252,35.868],[61.153,35.977],[61.212,36.099],[61.12,36.643],[60.341,36.638],[60.063,36.963],[59.949,37.042],[59.562,37.179],[59.367,37.334],[59.345,37.445],[59.241,37.521],[58.815,37.683],[58.436,37.639],[58.262,37.666],[58.109,37.783],[57.711,37.905],[57.424,37.948],[57.194,38.216],[56.907,38.213],[56.775,38.25],[56.441,38.249],[56.229,38.073],[55.578,38.1],[55.381,38.051],[55.076,37.902],[54.849,37.723],[54.745,37.502],[54.192,37.332],[53.914,37.344]]],[[[56.188,26.921],[56.074,26.983],[55.907,26.91],[55.758,26.948],[55.763,26.812],[55.347,26.648],[55.424,26.583],[55.848,26.731],[55.954,26.701],[56.095,26.801],[56.188,26.921]]]]},"properties":{"name_ar":"إيران","iso":"IRN"}},
{"type":"Feature","geometry":{"type":"MultiPolygon","coordinates":[[[[24,38.678],[24,38.393],[24.189,38.204],[24.212,38.118],[24.502,37.97],[24.579,38.02],[24.563,38.148],[24.36,38.163],[24.276,38.22],[24.099,38.671],[24,38.678]]],[[[25.546,36.968],[25.588,37.153],[25.525,37.196],[25.362,37.07],[25.457,36.93],[25.546,36.968]]],[[[26.824,37.811],[26.639,37.781],[26.845,37.645],[27.04,37.77],[26.824,37.811]]],[[[24.992,37.76],[24.956,37.905],[24.714,37.899],[24.884,37.771],[24.992,37.76]]],[[[26.094,38.218],[26.157,38.303],[26.15,38.468],[26.013,38.602],[25.851,38.508],[25.991,38.354],[25.874,38.27],[25.999,38.162],[26.094,38.218]]],[[[26.41,39.329],[26.348,39.383],[26.165,39.374],[26.026,39.285],[25.91,39.288],[25.906,39.139],[26.161,39.026],[26.469,38.973],[26.578,39.11],[26.393,39.27],[26.41,39.329]]],[[[25.438,39.983],[25.058,40],[25.062,39.852],[25.357,39.808],[25.438,39.983]]],[[[27.843,35.929],[28.144,36.21],[28.23,36.37],[28.171,36.426],[27.914,36.345],[27.716,36.172],[27.757,36.069],[27.716,35.957],[27.843,35.929]]],[[[24,35.529],[24,35.221],[24.464,35.16],[24.709,35.089],[24.8,34.934],[25.206,34.959],[25.83,35.025],[26.166,35.019],[26.244,35.045],[26.299,35.269],[26.028,35.215],[25.837,35.133],[25.745,35.143],[25.73,35.349],[25.476,35.306],[25.104,35.347],[25.003,35.41],[24.721,35.425],[24.313,35.364],[24.166,35.595],[24,35.529]]]]},"properties":{"name_ar":"اليونان","iso":"GRC"}},
{"type":"Feature","geometry":{"type":"Polygon","coordinates":[[[35.268,5.492],[35.325,5.365],[35.469,5.419],[35.745,5.344],[35.8,5.157],[35.764,5],[45.021,5],[45.935,5.997],[46.423,6.497],[46.971,7.026],[47.978,7.997],[46.978,7.997],[46.296,8.235],[45.555,8.483],[44.894,8.7],[44.023,8.986],[43.621,9.337],[43.483,9.379],[43.303,9.609],[43.182,9.88],[43.069,9.926],[42.842,10.203],[42.66,10.621],[42.923,10.999],[42.783,11.009],[42.558,11.081],[42.308,11.005],[41.957,10.941],[41.798,10.98],[41.765,11.413],[41.767,11.589],[41.816,11.724],[41.996,11.912],[42.379,12.466],[42.134,12.771],[41.952,12.882],[41.765,13.184],[41.625,13.313],[41.363,13.5],[41.122,13.736],[40.939,13.983],[40.77,14.144],[40.524,14.225],[40.221,14.431],[40.062,14.459],[39.895,14.441],[39.756,14.499],[39.532,14.537],[39.27,14.47],[39.198,14.479],[39.074,14.628],[38.812,14.482],[38.504,14.424],[38.377,14.47],[38.221,14.65],[38.003,14.737],[37.884,14.852],[37.571,14.149],[37.507,14.156],[37.354,14.372],[37.257,14.454],[37.133,14.406],[37.025,14.272],[36.812,14.315],[36.524,14.257],[36.444,13.988],[36.447,13.842],[36.391,13.626],[36.212,13.271],[36.16,13.093],[36.108,12.726],[35.821,12.685],[35.67,12.624],[35.596,12.537],[35.252,11.957],[35.112,11.817],[34.961,11.277],[34.969,11.162],[34.931,10.865],[34.771,10.746],[34.572,10.88],[34.431,10.788],[34.276,10.528],[34.315,10.252],[34.292,10.125],[34.185,9.919],[34.12,9.73],[34.078,9.462],[34.102,8.752],[34.095,8.582],[33.953,8.444],[33.785,8.431],[33.409,8.448],[33.234,8.396],[33.013,7.952],[33.015,7.869],[33.226,7.761],[33.666,7.671],[33.902,7.51],[34.02,7.368],[34.064,7.226],[34.279,7.003],[34.484,6.898],[34.563,6.78],[34.711,6.66],[34.838,6.3],[34.959,6.045],[34.984,5.858],[35.082,5.673],[35.268,5.492]]]},"properties":{"name_ar":"إثيوبيا","iso":"ETH"}},
{"type":"Feature","geometry":{"type":"MultiPolygon","coordinates":[[[[36.524,14.257],[36.812,14.315],[37.025,14.272],[37.133,14.406],[37.257,14.454],[37.354,14.372],[37.507,14.156],[37.571,14.149],[37.884,14.852],[38.003,14.737],[38.221,14.65],[38.377,14.47],[38.504,14.424],[38.812,14.482],[39.074,14.628],[39.198,14.479],[39.27,14.47],[39.532,14.537],[39.756,14.499],[39.895,14.441],[40.062,14.459],[40.221,14.431],[40.524,14.225],[40.77,14.144],[40.939,13.983],[41.122,13.736],[41.363,13.5],[41.625,13.313],[41.765,13.184],[41.952,12.882],[42.134,12.771],[42.379,12.466],[42.479,12.514],[42.67,12.377],[42.767,12.423],[42.883,12.621],[43.117,12.709],[43.083,12.825],[42.97,12.808],[42.796,12.864],[42.734,13.019],[42.523,13.221],[42.399,13.213],[42.346,13.398],[42.245,13.588],[41.658,13.983],[41.48,14.244],[41.176,14.62],[40.799,14.743],[40.634,14.883],[40.437,14.964],[40.204,15.014],[40.084,15.152],[40.041,15.335],[39.864,15.47],[39.721,15.214],[39.631,15.453],[39.507,15.532],[39.422,15.787],[39.299,15.921],[39.223,16.194],[39.143,16.729],[39.034,17.086],[38.912,17.427],[38.609,18.005],[38.422,17.824],[38.254,17.585],[38.025,17.538],[37.782,17.458],[37.51,17.288],[37.411,17.062],[37.17,17.041],[37.009,17.059],[36.979,16.801],[36.888,16.625],[36.914,16.296],[36.813,15.994],[36.679,15.726],[36.522,15.25],[36.427,15.132],[36.524,14.257]]],[[[40.141,15.696],[40.132,15.795],[40.043,15.875],[39.945,15.789],[40.071,15.677],[40.095,15.591],[40.399,15.58],[40.25,15.703],[40.141,15.696]]]]},"properties":{"name_ar":"إريتريا","iso":"ERI"}},
{"type":"Feature","geometry":{"type":"Polygon","coordinates":[[[36.871,21.997],[36.83,22.098],[36.415,22.394],[36.23,22.629],[35.913,22.74],[35.698,22.946],[35.564,23.271],[35.523,23.443],[35.504,23.779],[35.541,23.921],[35.632,23.95],[35.625,24.066],[35.478,24.155],[35.194,24.475],[34.853,25.14],[34.679,25.443],[34.565,25.691],[34.329,26.024],[34.05,26.551],[33.959,26.649],[33.893,27.049],[33.802,27.268],[33.697,27.341],[33.55,27.607],[33.547,27.898],[33.202,28.208],[32.898,28.565],[32.784,28.787],[32.632,28.992],[32.638,29.182],[32.565,29.386],[32.397,29.534],[32.36,29.631],[32.566,29.974],[32.647,29.798],[32.721,29.522],[32.871,29.286],[33.076,29.073],[33.204,28.778],[33.248,28.568],[33.416,28.39],[33.594,28.256],[33.76,28.048],[34.045,27.829],[34.22,27.764],[34.4,28.016],[34.446,28.357],[34.617,28.758],[34.736,29.271],[34.904,29.477],[34.659,30.191],[34.53,30.446],[34.49,30.596],[34.245,31.208],[34.198,31.323],[33.903,31.181],[33.667,31.13],[33.378,31.131],[33.194,31.085],[33.13,31.168],[32.902,31.111],[32.603,31.069],[32.324,31.256],[32.207,31.119],[32.102,31.093],[32.008,31.221],[31.771,31.293],[31.876,31.414],[31.889,31.541],[31.607,31.456],[31.524,31.458],[31.194,31.588],[31.052,31.592],[31.002,31.463],[30.7,31.404],[30.571,31.473],[30.395,31.458],[30.223,31.258],[29.93,31.227],[29.592,31.012],[29.279,30.867],[29.072,30.83],[28.515,31.05],[27.968,31.097],[27.83,31.195],[27.54,31.213],[27.248,31.378],[26.769,31.47],[26.457,31.512],[25.893,31.621],[25.382,31.513],[25.225,31.534],[25.15,31.655],[24.853,31.335],[24.878,31.061],[24.974,30.777],[24.878,30.458],[24.726,30.251],[24.712,30.132],[24.804,29.886],[24.916,29.376],[24.98,29.182],[24.98,28.059],[24.98,27.161],[24.98,26.263],[24.98,25.589],[24.98,24.691],[24.98,24.017],[24.98,23.119],[24.98,21.996],[26.126,21.996],[27.272,21.996],[28.036,21.995],[28.801,21.995],[29.565,21.995],[30.329,21.995],[31.261,22.002],[31.358,22.189],[31.486,22.148],[31.434,21.996],[32.606,21.996],[33.918,21.996],[34.575,21.996],[35.887,21.997],[36.871,21.997]]]},"properties":{"name_ar":"مصر","iso":"EGY"}},
{"type":"Feature","geometry":{"type":"Polygon","coordinates":[[[43.246,11.5],[43.162,11.566],[42.912,11.587],[42.653,11.51],[42.64,11.56],[42.799,11.739],[43.048,11.829],[43.272,11.97],[43.38,12.091],[43.41,12.19],[43.299,12.464],[43.117,12.709],[42.883,12.621],[42.767,12.423],[42.67,12.377],[42.479,12.514],[42.379,12.466],[41.996,11.912],[41.816,11.724],[41.767,11.589],[41.765,11.413],[41.798,10.98],[41.957,10.941],[42.308,11.005],[42.558,11.081],[42.783,11.009],[42.923,10.999],[43.246,11.5]]]},"properties":{"name_ar":"جيبوتي","iso":"DJI"}},
{"type":"Feature","geometry":{"type":"Polygon","coordinates":[[[34.004,35.065],[33.908,35.202],[33.942,35.292],[34.463,35.594],[34.411,35.629],[34.063,35.474],[33.608,35.354],[33.459,35.336],[32.942,35.39],[32.88,35.181],[32.713,35.171],[32.92,35.088],[33.191,35.173],[33.384,35.163],[33.526,35.039],[33.675,35.018],[33.866,35.094],[34.004,35.065]]]},"properties":{"name_ar":"قبرص الشمالية","iso":"CYN"}},
{"type":"Feature","geometry":{"type":"Polygon","coordinates":[[[32.713,35.171],[32.556,35.156],[32.391,35.05],[32.317,34.953],[32.449,34.729],[32.693,34.649],[32.867,34.661],[32.942,34.576],[33.116,34.696],[33.297,34.718],[33.514,34.806],[33.699,34.97],[34.05,34.988],[34.004,35.065],[33.866,35.094],[33.675,35.018],[33.526,35.039],[33.384,35.163],[33.191,35.173],[32.92,35.088],[32.713,35.171]]]},"properties":{"name_ar":"قبرص","iso":"CYP"}},
{"type":"Feature","geometry":{"type":"Polygon","coordinates":[[[25.17,5],[27.468,5],[27.403,5.109],[27.115,5.198],[27.021,5.184],[26.822,5.062],[26.174,5.171],[25.714,5.284],[25.525,5.312],[25.4,5.256],[25.249,5.025],[25.17,5]]]},"properties":{"name_ar":"جمهورية الكونغو الديمقراطية","iso":"COD"}},
{"type":"Feature","geometry":{"type":"Polygon","coordinates":[[[24.147,8.666],[24,8.698],[24,5],[24.363,5],[24.478,5],[25.17,5],[25.249,5.025],[25.4,5.256],[25.525,5.312],[25.714,5.284],[26.174,5.171],[26.822,5.062],[27.021,5.184],[27.115,5.198],[27.403,5.109],[27.257,5.29],[27.213,5.619],[27.083,5.777],[26.726,5.998],[26.514,6.069],[26.309,6.455],[26.362,6.635],[26.169,6.782],[26.037,6.955],[25.889,7.065],[25.381,7.333],[25.19,7.519],[25.247,7.725],[25.2,7.808],[25.007,7.965],[24.853,8.138],[24.737,8.192],[24.456,8.239],[24.291,8.291],[24.18,8.461],[24.221,8.608],[24.147,8.666]]]},"properties":{"name_ar":"جمهورية أفريقيا الوسطى","iso":"CAF"}},
{"type":"Feature","geometry":{"type":"Polygon","coordinates":[[[50.607,25.883],[50.61,26.124],[50.452,26.191],[50.466,25.966],[50.607,25.883]]]},"properties":{"name_ar":"البحرين","iso":"BHR"}},
{"type":"Feature","geometry":{"type":"MultiPolygon","coordinates":[[[[44.817,39.65],[45.141,39.254],[45.256,39.195],[45.48,39.006],[45.575,38.973],[46.114,38.878],[45.952,39.178],[45.977,39.244],[45.766,39.378],[45.75,39.563],[45.457,39.494],[45.149,39.657],[45.032,39.765],[44.768,39.704],[44.817,39.65]]],[[[48.869,38.435],[48.851,38.815],[49.013,39.134],[49.2,39.073],[49.269,39.285],[49.363,39.35],[49.324,39.608],[49.455,40],[45.593,40],[46.202,39.594],[46.322,39.617],[46.481,39.555],[46.378,39.382],[46.507,39.299],[46.55,39.201],[46.49,39.069],[46.491,38.907],[46.555,38.904],[46.853,39.148],[46.989,39.18],[47.188,39.341],[47.773,39.649],[47.996,39.684],[48.322,39.399],[48.136,39.312],[48.125,39.172],[48.274,39.099],[48.242,38.979],[48.05,38.935],[48.023,38.819],[48.205,38.724],[48.306,38.613],[48.417,38.586],[48.593,38.411],[48.869,38.435]]]]},"properties":{"name_ar":"أذربيجان","iso":"AZE"}},
{"type":"Feature","geometry":{"type":"Polygon","coordinates":[[[44.768,39.704],[45.032,39.765],[45.149,39.657],[45.457,39.494],[45.75,39.563],[45.766,39.378],[45.977,39.244],[45.952,39.178],[46.114,38.878],[46.491,38.907],[46.49,39.069],[46.55,39.201],[46.507,39.299],[46.378,39.382],[46.481,39.555],[46.322,39.617],[46.202,39.594],[45.593,40],[44.389,40],[44.768,39.704]]]},"properties":{"name_ar":"أرمينيا","iso":"ARM"}},
{"type":"Feature","geometry":{"type":"Polygon","coordinates":[[[66,29.789],[66,37.463],[65.765,37.569],[65.641,37.468],[65.555,37.251],[65.09,37.238],[64.816,37.132],[64.511,36.341],[64.358,36.226],[64.092,36.113],[64.01,36.012],[63.863,36.012],[63.302,35.858],[63.109,35.819],[63.17,35.678],[63.057,35.446],[62.611,35.233],[62.463,35.251],[62.308,35.171],[62.253,35.25],[61.984,35.444],[61.72,35.419],[61.543,35.458],[61.345,35.629],[61.262,35.62],[61.279,35.514],[61.189,35.312],[61.1,35.272],[61.15,35.094],[61.08,34.856],[60.951,34.654],[60.726,34.518],[60.889,34.319],[60.643,34.307],[60.486,34.095],[60.527,33.842],[60.511,33.639],[60.655,33.56],[60.806,33.559],[60.917,33.505],[60.718,33.324],[60.561,33.138],[60.577,32.995],[60.829,32.249],[60.79,31.987],[60.792,31.661],[60.854,31.483],[61.66,31.382],[61.755,31.285],[61.814,31.073],[61.784,30.832],[60.843,29.859],[61.224,29.749],[62.373,29.425],[62.477,29.408],[63.568,29.498],[64.099,29.392],[64.266,29.507],[64.521,29.565],[65.096,29.559],[66,29.789]]]},"properties":{"name_ar":"أفغانستان","iso":"AFG"}}
]}